{"type":"FeatureCollection","features":[{"type":"Feature","properties":{},"geometry":{"type":"Polygon","coordinates":[[[-37595.88915403293,82707.99690928463],[-40257.601429370276,80166.2633217509],[-43275.832146365145,78237.34127022412],[-45887.82135810428,77642.47216487557],[-46700.4062601378,77038.63184419801],[-47032.06316999549,77128.67626472471],[-47272.527166082684,78336.46766182472],[-47297.38869788251,80220.3121252159],[-46982.34010639728,81022.51598483959],[-44569.34504057305,81797.58468698604],[-45282.483815411586,82771.01692807862],[-45658.68869331535,83000.0],[-37413.13139171709,83000.0],[-37595.88915403293,82707.99690928463]]]}},{"type":"Feature","properties":{},"geometry":{"type":"Polygon","coordinates":[[[-78840.04960162585,79976.98175387908],[-81161.74986215754,79720.028425931],[-83674.19105517819,81383.02593418032],[-84672.10522578523,83000.0],[-78147.36027983706,83000.0],[-78840.04960162585,79976.98175387908]]]}},{"type":"Feature","properties":{},"geometry":{"type":"Polygon","coordinates":[[[-99669.42813052562,81842.66227512204],[-101327.81457133903,81220.7687680408],[-103176.9419446443,82045.4560438602],[-102871.82516074947,83000.0],[-99156.76623330737,83000.0],[-99669.42813052562,81842.66227512204]]]}},{"type":"Feature","properties":{},"geometry":{"type":"Polygon","coordinates":[[[-106037.64836589656,80968.35642563006],[-105639.66007406675,79841.74898947186],[-101360.92931656333,79179.20812404744],[-98989.50599243489,78259.93544216438],[-97554.97522933477,76885.3458933875],[-99735.7595124963,74118.22436517534],[-102521.88133835194,73527.89624536413],[-103525.2071728759,71901.00510992104],[-101410.75427168504,70107.31582280147],[-101261.48318936836,69120.37138084252],[-103873.4724011075,69255.60414524974],[-112455.59166486425,72797.79437560836],[-116958.17810008096,73974.02038543911],[-121211.94543426248,72964.59252728484],[-115208.49685397354,71657.67473858382],[-113550.11041315869,69945.05865666195],[-122256.74111895727,71986.6193006553],[-124744.32078017955,71526.98295971396],[-124744.32078017955,70769.85668822589],[-116253.29253866833,63644.82886916508],[-112919.91133866618,62382.877912854754],[-104561.6477526227,63473.48973195125],[-101485.33886708163,64739.87091805362],[-100407.42843716255,65474.51377334634],[-99097.3072245793,64794.03047726314],[-98641.24076420329,63951.29001504081],[-99321.16290229403,60246.73186279776],[-100415.68165058702,59417.50360144138],[-101037.62751165363,58601.78754095135],[-101858.46562711307,55951.95634648803],[-101012.66408833173,55586.905411610336],[-99669.42813052562,56443.158074699015],[-98948.0361422626,57466.208889464164],[-98077.37307168289,58173.71658727967],[-96161.91431640694,58390.022556884185],[-94246.45556113099,57569.76551085681],[-93052.38879411807,54559.31361130783],[-91609.60481759203,53477.78376328564],[-91286.20112115881,52896.42685880304],[-91186.75499396384,50710.66223507348],[-90589.77255621913,48772.7689682173],[-92397.32818782717,48664.6713612877],[-94843.53989039922,47339.70038618338],[-96161.91431640694,47948.08169239828],[-97430.56567881646,46943.08406403603],[-99569.88011180569,44139.966918762184],[-101037.62751165363,42648.19779198139],[-103840.25576435968,41616.17576188684],[-104570.00285757214,41138.4862345422],[-105639.66007406675,37704.39361111358],[-106750.78714073365,37452.09202444737],[-107281.43819650769,39002.340184485205],[-107704.28802013588,42242.610254505045],[-109221.75848358202,43297.22645653985],[-110390.86182727161,42783.4305563886],[-112919.91133866618,40381.35996305413],[-110366.00029547323,39498.08289823315],[-109818.74092132674,37659.426778722496],[-110556.74122796366,35378.96599318436],[-113525.24888136031,30674.061953860946],[-114097.3697873052,29344.549993219665],[-114312.97225159401,27870.944808587094],[-113724.24302727522,24202.493029150646],[-114312.97225159401,22855.03863785098],[-117505.43747422891,23652.701511937703],[-119868.60758493142,22368.267139432424],[-124047.79032371491,17559.69572297144],[-126709.50259905226,15202.702717772576],[-127372.81641876909,13918.268345267297],[-127596.67209648238,11926.326274946514],[-128069.34687523372,10389.590315774632],[-129147.35919667632,9510.743480745692],[-130316.46254036736,9573.874255284607],[-131062.71606042876,10822.202254983666],[-130183.79977642313,14269.807079279031],[-124735.96567523012,19921.118957962342],[-124047.79032371491,22165.47337069386],[-125233.50198577986,22868.55083871733],[-127754.29828374849,21394.834898339835],[-128226.87117097489,22507.93013363168],[-126933.35827676699,23219.978816984145],[-126286.55088390056,23882.519682408565],[-127596.67209648238,27532.918275441705],[-128226.87117097489,27532.918275441705],[-128948.26315923792,23882.519682408565],[-131585.11390277688,23490.444345798183],[-134835.555402433,24905.57049717372],[-137397.8215505754,26699.149028548374],[-136999.83325874558,25067.71690756832],[-136112.56186979197,24076.342235817345],[-134835.555402433,23652.701511937703],[-133152.30742981978,23679.725913670398],[-135217.03726741386,19474.994817886964],[-135341.44681793218,17433.434173893613],[-134545.36834274762,14607.833612424023],[-139277.82205558053,9698.585223935534],[-140809.5573323541,5813.716719149653],[-141631.21058000307,2047.4676170500568],[-141583.11778078534,-1044.8327779102622],[-140231.93428412528,-3052.945186972696],[-142256.92642744962,-5189.977282988258],[-142953.45688391282,-6533.001444495491],[-145081.97081538406,-9370.23135916938],[-145510.6284558667,-4860.700453682424],[-144028.1067850724,-2516.112091901897],[-144421.10239223723,3408.7664764500405],[-145042.94636178177,5463.728565565212],[-146029.76576945386,7491.777008692607],[-147182.260794771,9037.59493893801],[-148641.65308967096,10141.718958900856],[-150615.1900134931,10822.202254983666],[-157008.2717806624,10997.971621989533],[-159023.17666313332,11511.767522140786],[-160000.0,12293.167887786367],[-160000.0,83000.0],[-104286.27358889753,83000.0],[-106037.64836589656,80968.35642563006]]]}},{"type":"Feature","properties":{},"geometry":{"type":"Polygon","coordinates":[[[-159537.32129205696,10168.743360633158],[-157630.21764173044,9997.514979164644],[-154463.4290830849,5804.191725096455],[-155433.74206390805,1208.603605895565],[-158143.64902998664,-3696.989843014531],[-160000.0,-4553.048363689453],[-160000.0,10100.231441535858],[-159537.32129205696,10168.743360633158]]]}},{"type":"Feature","properties":{},"geometry":{"type":"Polygon","coordinates":[[[-55856.98993488738,70901.54526879924],[-56264.454138426656,67545.09242247857],[-57749.11553122047,65771.89294814816],[-60386.47573237843,67410.08116956119],[-62350.638636014606,68042.05344941944],[-65485.637039244364,67730.94056226184],[-68246.48976720616,66000.71431691555],[-69751.0200071334,63664.10036876092],[-71052.78611476722,63006.43275610782],[-72579.63059839932,63725.90207436238],[-73624.42628309556,63793.463078693334],[-74544.81241727348,64194.62038637763],[-74992.5237727015,64987.74227492739],[-73723.87241029198,66821.96816464601],[-73649.28781489539,67606.11883786638],[-73972.69151132715,70215.52418547598],[-74644.25854446845,71810.84993364943],[-74735.55334976391,72622.02500860249],[-71211.83878336535,74392.67710080252],[-67324.47336864776,71868.88594392757],[-64613.649378854694,72195.5046353577],[-64208.22300579138,75552.0682374233],[-63309.23409160385,77642.47216487557],[-60417.45075560326,78226.93023021275],[-57667.09285458892,75741.57131678495],[-55856.98993488738,70901.54526879924]]]}},{"type":"Feature","properties":{},"geometry":{"type":"Polygon","coordinates":[[[-152772.53924618824,-11672.4002706896],[-154835.74071092537,-11242.44646935587],[-156036.63421003075,-12279.895530945936],[-156812.33438046,-14645.74899572888],[-156476.9074842238,-17608.908192246232],[-157762.37094805425,-18134.333445601784],[-160000.0,-17372.611237455218],[-160000.0,-8612.98405874289],[-159742.83649549235,-8795.630555120153],[-157590.9894050797,-7595.259792921841],[-153998.29427709346,-7948.016840126503],[-151705.73499235912,-9033.20162772748],[-152772.53924618824,-11672.4002706896]]]}},{"type":"Feature","properties":{},"geometry":{"type":"Polygon","coordinates":[[[113019.5499276297,-30038.36089726089],[109507.45099494155,-35693.327715522595],[105188.37119402734,-40268.75828916868],[102297.70866478824,-42451.089484809694],[101086.62601330591,-43092.03297999694],[102533.99510840143,-40982.1360414586],[107941.48016618365,-35535.83304640987],[112049.64451290204,-30319.90200055542],[113019.5499276297,-30038.36089726089]]]}},{"type":"Feature","properties":{},"geometry":{"type":"Polygon","coordinates":[[[-86858.30117286365,78669.95320943315],[-84992.66737270943,79017.06171365245],[-84901.47445893747,77637.9311793386],[-84188.33568410038,75470.33049775688],[-84246.41385264658,74478.84507026098],[-85050.74554125562,73298.07807489326],[-86775.46336404113,72018.18468792495],[-87803.65073036347,68160.45134061629],[-89569.83840332272,67295.22746219822],[-91858.42391862864,67443.86167172686],[-94097.1844788143,68313.73729142641],[-95996.03491571634,69891.00985319694],[-96344.30014394794,70729.32008562723],[-96137.05278460856,71526.98295971396],[-92977.80419872147,72901.46175274592],[-92654.40050228826,74478.84507026098],[-95092.25709991233,73171.92728156036],[-95863.37215177211,73352.12687835826],[-96137.05278460856,74893.4038230667],[-95813.64908817534,76475.2173703742],[-94370.8651116493,79382.11264853053],[-94047.4614152161,81356.001532448],[-92057.41806454356,80179.77552261726],[-89428.8205344305,79174.777894255],[-86858.30117286365,78669.95320943315]]]}},{"type":"Feature","properties":{},"geometry":{"type":"Polygon","coordinates":[[[106360.7350664779,-82600.93302263923],[107496.72366494463,-82010.49414708311],[110133.57440848359,-81433.67822813787],[110539.91780526283,-80261.99320384407],[109984.3033261669,-79653.61189762918],[106360.7350664779,-78747.74066086793],[106360.7350664779,-77990.61438937986],[109395.57410184667,-77963.58998764717],[109097.13382873678,-76945.08015841896],[106360.7350664779,-74277.0850218074],[106626.06059436491,-72726.83686176958],[108649.32058178526,-71825.50661054529],[109163.46521070745,-70842.9923983784],[108317.66367192757,-68080.41185570358],[109216.34691154312,-65498.584688550094],[110098.1161582128,-64479.299569108254],[109909.7187307703,-63591.81378598468],[110092.1045583113,-62722.04892202966],[111402.22577089311,-59251.84992579442],[112015.81652701173,-58584.87883057757],[113010.88914810975,-58332.57724391136],[111564.9465343477,-57367.89470665832],[112179.6580972278,-55795.38464191498],[113672.6745949696,-55694.2646469078],[114934.60111681017,-55132.84377649016],[115481.86049095812,-55313.04337328846],[115158.55868604842,-54087.309545529664],[114300.42827289212,-54705.88038026649],[112629.50917465385,-54483.81511193209],[112612.90085627994,-53208.462710500724],[113567.62443396717,-51025.91000337027],[117075.54581417989,-50942.73243902148],[115655.9931050732,-46908.122167258945],[114039.07651443208,-43794.0028905724],[114785.33003449348,-42387.95871027078],[114785.33003449348,-41630.83243878271],[113607.87158585446,-41054.01651983746],[114785.33003449348,-38606.86833836738],[116358.9427275348,-36570.51321437972],[113045.93983228506,-36777.072678441196],[112967.78903355698,-33408.99047891623],[114743.45261822571,-31423.582997538982],[114659.79967721368,-25075.50672828629],[114939.08434385614,-20338.151255735043],[116021.27421777417,-16552.96292127397],[117710.12622419487,-13596.89209242396],[118193.39772141719,-9728.193926379729],[119097.17553721975,-6343.719876623671],[119586.45863434502,-5189.977282988258],[121974.49027684591,-2048.8336045690194],[122671.02073331055,-412.86049805200804],[124835.19669809962,1236.5140535864323],[125448.78745421678,2408.3098336251505],[126543.40809403473,6283.985611592197],[129287.9581781946,8897.821188994229],[130084.03665337773,9997.514979164644],[131128.83233807396,12980.94247698132],[132720.8873969167,15964.259219053078],[134959.7498486244,22165.47337069386],[136004.44364179712,23968.133873142826],[137173.64887701167,25126.306696570275],[139586.64394283592,26735.255401354985],[140283.17439930054,28934.53222595129],[142273.2177499731,30484.780385989125],[142729.28421034908,31656.465410282923],[142961.39310148684,35536.792929531846],[143309.65832971988,36604.81057668769],[148989.70321357562,42972.71212426082],[149279.89027326103,44239.09331036279],[150556.8967406185,45298.13974218963],[151419.20470625025,47758.80012452606],[152472.35549589447,52486.29833578975],[156079.31543720956,58687.51248743053],[157173.83418550258,62491.08627552967],[158467.3470797119,64600.20792385436],[160000.0,66283.55477922158],[160000.0,-83000.0],[106157.78765086815,-83000.0],[106360.7350664779,-82600.93302263923]]]}},{"type":"Feature","properties":{},"geometry":{"type":"Polygon","coordinates":[[[105548.15016444582,-72379.8391132952],[105780.36094710708,-72447.40011762615],[105158.41508604049,-74898.97852888827],[104030.67970099968,-77607.51026809847],[105548.15016444582,-72379.8391132952]]]}},{"type":"Feature","properties":{},"geometry":{"type":"Polygon","coordinates":[[[108068.84457089096,-66101.98198624875],[108135.27784438657,-66800.51846873487],[106460.28308519782,-69937.23191736206],[107861.59721155012,-66129.11714372598],[108068.84457089096,-66101.98198624875]]]}},{"type":"Feature","properties":{},"geometry":{"type":"Polygon","coordinates":[[[109030.80244676468,-58080.164901500626],[109229.79659267957,-58147.725905831576],[108790.33845067747,-62163.1754337428],[109030.80244676468,-58080.164901500626]]]}},{"type":"Feature","properties":{},"geometry":{"type":"Polygon","coordinates":[[[111908.11718639082,-53943.10556579345],[112198.30424607622,-54569.42930266634],[111053.96054266152,-56538.88795679178],[110365.78519114631,-57052.68385694304],[110224.76732225409,-56629.043133063395],[111908.11718639082,-53943.10556579345]]]}},{"type":"Feature","properties":{},"geometry":{"type":"Polygon","coordinates":[[[111642.6897669803,-51378.777806319464],[112422.15992378951,-49923.115052345274],[112770.42515202255,-49778.911072608666],[111559.85195815923,-52081.85527434253],[111642.6897669803,-51378.777806319464]]]}},{"type":"Feature","properties":{},"geometry":{"type":"Polygon","coordinates":[[[113981.1002374094,-46624.25519332347],[114005.96176920777,-47737.35042861532],[113798.61251834489,-48169.96236782435],[113798.61251834489,-46461.99802718395],[113981.1002374094,-46624.25519332347]]]}},{"type":"Feature","properties":{},"geometry":{"type":"Polygon","coordinates":[[[114354.22699743937,-44416.007153398175],[114072.2931511799,-45046.87187580842],[113873.29900526498,-44267.26218812461],[114354.22699743937,-44416.007153398175]]]}},{"type":"Feature","properties":{},"geometry":{"type":"Polygon","coordinates":[[[113657.69654097618,-42590.752479008945],[113160.16023042644,-41770.60618872688],[113856.69068689107,-42059.014148199305],[113657.69654097618,-42590.752479008945]]]}},{"type":"Feature","properties":{},"geometry":{"type":"Polygon","coordinates":[[[-77256.24775620905,66686.84615598372],[-77878.19361727564,66641.76856784771],[-78533.25422356655,65731.35634554952],[-81037.44220316273,64888.61588332679],[-82181.68401505394,65339.28100893913],[-80241.36372797961,69151.93676811218],[-79727.21909905596,69674.70388359243],[-78102.04929499037,69904.52205406329],[-76708.98838206254,68683.21845609654],[-76725.59670043645,67484.50903007043],[-77256.24775620905,66686.84615598372]]]}},{"type":"Feature","properties":{},"geometry":{"type":"Polygon","coordinates":[[[-72811.73948953854,82351.91718973595],[-70465.17769720992,82789.07011448193],[-69461.85186268597,82167.17660740108],[-69295.97246199538,81283.8995425797],[-69577.90630825485,80427.64687949103],[-70208.10538274738,79918.39196487713],[-72778.62474431423,81491.12354111031],[-73143.49829092118,81932.81745139326],[-72811.73948953854,82351.91718973595]]]}},{"type":"Feature","properties":{},"geometry":{"type":"Polygon","coordinates":[[[54233.18455180634,-29907.669159868114],[54263.31323918788,-29988.343644392833],[54650.20727319229,-30247.921883516],[54560.41229310631,-30341.39973214423],[54531.12943894443,-30747.939769071254],[54582.33901942027,-30861.80775031716],[54514.84755866427,-30832.402100069296],[54472.83862747534,-30887.12651358471],[54588.554304722325,-30995.29057397181],[54591.519254911116,-30903.81740432634],[54630.04359387678,-30930.808579338747],[54558.79248996048,-31129.681594733855],[55153.04122673696,-31432.188760545057],[55104.48090762593,-31706.9959145877],[55192.92080110881,-31863.859275971266],[54925.288449105174,-32151.11537573541],[54953.35900815328,-32391.255981649098],[55224.24179713891,-32671.279731266135],[55612.79626349987,-32655.430584177157],[55452.88112050689,-32479.340025494224],[55559.90544691253,-32215.265103123093],[55768.7884808532,-32290.047382020246],[55770.7040238963,-32373.34677769762],[55868.22214240193,-32358.494432315274],[56064.35871069815,-32179.64605558004],[56090.91099897633,-32107.444385533163],[55930.56797281445,-31899.43402119424],[56051.78546555691,-31796.409027362017],[56122.80228255105,-32050.095060866668],[56202.28602615491,-32128.587657216445],[56321.24160152523,-32171.35045028848],[56698.18034335795,-32095.859334614714],[56680.66564517377,-32207.722636881008],[56853.367719978094,-32407.238035591687],[56727.60597928027,-32291.055259280634],[56769.88999690311,-32423.7074148482],[56845.919674632736,-32545.416902826262],[56951.04882512342,-32540.18923166978],[56925.52564869926,-32649.815267890837],[56659.7989624744,-32819.48199338106],[56824.11558315335,-33057.50716456588],[56968.32951754561,-33439.24899022573],[57098.86978936204,-33426.268416930034],[57055.11857837282,-33291.50082663755],[57245.34543100924,-33227.716593193894],[57256.16600707943,-33108.27759798175],[57506.59901186471,-32917.312542762134],[57491.5702697113,-32601.271024924743],[57553.31498517786,-32501.21428505533],[57590.40244325006,-32084.20783024152],[57785.703277147055,-32014.1991239383],[58048.68898689037,-32099.90191927219],[58026.619862943866,-32182.680762949978],[58163.263249307674,-32399.263621937844],[58355.59900932921,-32295.895285295468],[58295.12785688125,-32142.709014639513],[58371.19815516856,-32150.096422817784],[58364.19841045009,-32222.641435672453],[58621.55968865649,-32208.95202560762],[58719.6889578812,-32322.520966341417],[58657.20049231185,-32358.98175753594],[58882.77246582137,-32607.451195456753],[59144.66772022058,-32677.991529323943],[59217.02912267579,-32457.476841390075],[59478.94457810991,-32263.765043697884],[59468.195267400144,-32170.0878347314],[59186.187270692775,-32228.22352519284],[59112.490957164904,-32013.05833973734],[59272.25271745726,-31991.339138174342],[59037.75528739135,-31571.2758248099],[59039.32432387719,-31432.06692914919],[59163.5064374701,-31259.97465284733],[59324.72523945042,-31343.03038588328],[59504.12095771763,-31338.46724919238],[59597.92996100119,-31180.274818867034],[59531.6817933741,-31081.846188448755],[59604.91949218415,-31067.780208855453],[59586.03951732709,-31140.845773712066],[59689.0084027102,-31195.13823981809],[59876.646854586936,-31151.356493888237],[59608.11871242775,-30837.10921912349],[59558.468185067955,-30598.43058904297],[59770.85542898713,-30493.268009332278],[59786.515681762416,-30339.41720420681],[59498.14976874314,-30037.4084392444],[59517.72263817555,-30091.81166109849],[59400.835770136364,-30163.791819658676],[59401.62028642309,-30091.04744646221],[59143.12823753157,-30144.664302533944],[59131.95108144915,-30288.480637179662],[58985.93411288437,-30292.700431061196],[58991.670404318,-30150.61188603456],[59091.53170814482,-30151.198891478656],[59084.01227275761,-30057.554909236394],[58896.6997407651,-30100.118341974106],[58782.03385370864,-29810.91294110891],[58656.92443495326,-29772.790813745716],[58644.98317846527,-30112.212869314382],[58338.45029331654,-30087.104541970715],[58216.09181095835,-29998.067998714247],[58062.453457549746,-30066.20493293003],[57924.34301029683,-30258.620888403875],[57822.71893403914,-30274.215297276434],[57704.1303058269,-30222.85785840742],[57690.161283608395,-30111.692317334473],[57626.02214653906,-30098.866802085282],[57669.65102701554,-30114.505513252345],[57638.37111901594,-30167.247398935797],[57380.25567640645,-30229.669336720923],[57326.67226004811,-30311.418151971397],[57238.324259067886,-30278.025294910778],[57118.543527003,-30387.507348665047],[56972.41422851447,-30376.43177418613],[56811.796333114966,-30508.031750181883],[56739.90328610887,-30187.205584170835],[56363.351746947395,-30258.97530681933],[56485.89368967845,-29969.84743497011],[56373.77489535019,-29929.798157646426],[56309.95160822286,-30107.67188382425],[56149.292806745674,-30046.734073028987],[56099.57091915185,-30085.14416533204],[55966.25924040797,-30337.179938242236],[55999.3833518849,-30177.17111370289],[55790.30677528235,-30105.157728426744],[55717.55795259328,-30245.684617452658],[55782.17596482392,-29933.475248385057],[55865.96960989747,-29922.720865561172],[55859.53019955839,-29874.830081502576],[56051.70334016603,-29902.208901616887],[55998.32356364946,-29740.904234865888],[55686.328780820324,-29806.405182357164],[55718.67855828447,-29695.870949027933],[55590.97061703056,-29550.23822016979],[55739.49444998355,-29488.923839836214],[55768.39016844839,-29332.8136175155],[55739.94269687932,-29283.793124859676],[55674.86609276094,-29316.443918433233],[55784.24408544661,-29215.94415558336],[55883.260023438255,-29372.442023008727],[56774.62691073372,-29663.530271522595],[56936.84447684153,-29560.416673093496],[57092.13360200003,-29566.009838204234],[56906.14520580495,-29284.446583731366],[56711.414748353316,-29149.41317965414],[56746.413610646305,-29032.410810827463],[56850.53408619437,-29100.34838469673],[56888.15152087489,-29064.518901247495],[56859.46976115434,-29108.920879346064],[57144.565616276916,-29292.498526375213],[57241.96130741248,-29145.126932319046],[56955.10279379222,-28958.813618392327],[56920.776377624345,-28992.638422859585],[57001.60492710729,-28851.291941322375],[56737.72233769538,-28634.077774591973],[56685.08635889649,-28407.958845972364],[56325.183584260594,-28745.963228014567],[56187.174740555434,-28678.435450400757],[56041.76879313853,-28806.059295157178],[56058.44801267475,-28703.57700447691],[55981.042825167475,-28693.010906422576],[55941.22458455393,-28815.373853297904],[55970.0489845962,-28688.857565993032],[55833.680533462495,-28672.133448527966],[55616.27968831531,-28914.987570193152],[55702.56959941138,-28814.731469982333],[55695.365999042,-28702.04857520474],[55597.82749187553,-28706.9107524046],[55600.10984447798,-28817.256700965856],[55584.15397302766,-28736.15026903607],[55552.41551268571,-28799.967729201588],[55534.92112121186,-28741.743434151136],[55452.452015421506,-28754.148077571834],[55467.19541454732,-28859.21097710553],[55579.24295190757,-28854.48170679981],[55457.11857794896,-28873.454165889445],[55442.91519571065,-28781.98099624358],[55437.616986959336,-28875.30378682727],[55329.522745305934,-28903.756937673632],[55105.386771902515,-28628.50676065603],[55485.076854282794,-28499.598149256657],[55524.691290121154,-28244.904238473915],[55486.96171148925,-28204.99894361544],[55466.42078206538,-27986.356027770977],[55526.67809572721,-28138.733781491028],[55759.932923446635,-27942.92870022353],[55674.18292468626,-27711.161228618952],[55551.25364165629,-27742.150686021087],[55462.34518214231,-27883.652225601658],[55491.454895560724,-27795.125158768988],[55550.63211523099,-27734.519615204546],[56118.79655408979,-27486.38244450354],[56218.087458018555,-27319.373856892158],[56125.95920461673,-27008.50463233898],[55662.159575680555,-26369.75410083518],[55642.64774753911,-26207.10928957054],[55843.420325255356,-26142.67159723198],[55916.54617353993,-26152.56208524298],[55926.26641959211,-26218.240241918964],[56166.042129549984,-26212.8907394402],[56600.792760774944,-26158.72010464033],[56607.2728908617,-26110.164786113794],[56923.984918246126,-26149.47199994333],[56982.601716958794,-26209.413009037467],[57196.26301654805,-26084.569133475088],[57160.59160433687,-25916.6523487575],[57376.117477289976,-25898.6988425186],[57525.29312232195,-25696.35917230796],[57709.81408559487,-25617.888727100322],[57763.48915821449,-25474.9805895616],[57673.938898968,-25420.46661196456],[57704.5768590083,-25244.298524255813],[57921.15206808004,-25170.67918067106],[57905.38995705405,-25490.65252745013],[57824.93844185295,-25567.937886185522],[57956.53830805118,-25723.28389386366],[58096.60509657895,-25776.03685511818],[58138.287988801516,-26099.99740870764],[57876.83076148129,-26293.908566740844],[57865.59245165889,-26421.20014426015],[57800.556702436945,-26401.042598704564],[57856.75874280859,-26607.51345819238],[58100.38551537325,-26714.138013723255],[58061.117533090815,-26787.414014496277],[57816.46168116883,-26702.541887246723],[57796.80731624824,-26763.70120953615],[57732.199492430904,-26731.449136646188],[57664.025570834434,-26758.163422297675],[57664.40256345396,-26767.533358308694],[57825.26491742004,-26779.672187937576],[57841.21056956325,-26850.411882152464],[58118.06334429577,-26972.57546868088],[58321.09744750239,-26910.85129208949],[58408.99695474489,-26677.134519372845],[58454.95910290318,-26807.671240214306],[58416.7711617022,-26897.804265347317],[58101.9445884886,-27191.10762878042],[58067.58768512905,-27349.975669147923],[58144.901105583966,-27548.12877219929],[58265.5172977947,-27662.47300314673],[58428.498829645825,-27582.806395895775],[58530.59155159154,-27603.838911834137],[58644.96178941076,-27380.300592066378],[58964.882758182,-27345.933084442444],[58939.7978933751,-27827.997463761163],[59298.76269032384,-28034.446172093856],[59240.51274636877,-27830.611299332515],[59296.67373555051,-27425.145593128094],[59542.837090001405,-27121.010317851986],[59295.583400684394,-27100.90815017417],[59483.78227022026,-27004.783239242497],[59337.887604425196,-26965.021926855523],[59482.885539780444,-26723.530100853197],[59480.72542745496,-26545.423787611322],[59392.39795141087,-26464.970814578406],[59620.00735852925,-26249.816704688466],[59830.794962187945,-26254.701033030855],[60251.72809402804,-26112.800772759212],[60264.16868591691,-26043.25724058803],[60149.44189751682,-25994.391805977924],[60270.89322484856,-25743.363910345033],[60259.970607998555,-25394.339331701292],[60315.85657364311,-25327.68652446868],[60143.90901507001,-25188.89850064197],[60223.5757784974,-24999.738764065678],[60017.57702140788,-24985.40697069236],[60003.587624330554,-24820.95684078676],[59881.321018745766,-24715.39554040388],[59945.38864237617,-24570.139381073426],[59857.52989509424,-24495.268497579],[59891.367136153596,-24413.276019690253],[60113.515264728645,-24373.07168431495],[60149.75693139119,-23936.10704428539],[60736.147115681284,-23958.85627425563],[60843.507242493375,-23900.875641840696],[60900.45303431876,-24352.60402265179],[61043.06661320619,-24234.183980289992],[60939.23177360192,-24097.56676905968],[61154.848669880106,-24150.873509035257],[61252.070818971435,-24059.987344834666],[61283.61560507922,-24178.00866651169],[61148.52142967887,-24264.752565855768],[61170.61096235936,-24417.218924172306],[61260.91492208508,-24452.58323349028],[61680.57390004972,-24316.375818500863],[61775.034810239544,-24200.680367462024],[61689.05089937596,-23999.858050961535],[61616.94431299551,-24023.216437545165],[61552.56083449422,-23934.899806629295],[61537.96012905924,-23792.523296666735],[61904.066372940186,-23738.928591739103],[62115.811216361566,-23564.211404283407],[62487.93902433983,-23828.43030910833],[62689.963628473924,-23746.50428466095],[62629.21776502347,-23954.215608493276],[62813.85005928312,-24070.055041992993],[62660.06974779511,-24237.927524417653],[62369.71784650874,-24139.31060924084],[62130.819824811915,-24514.49569481777],[62325.712442599935,-24762.52210975694],[62292.77188324766,-24811.741962755354],[62384.79776604772,-25061.219277953474],[62165.33999302184,-25217.938656877734],[62059.212893311495,-25390.252444669044],[62050.10412619021,-25561.92384913612],[62133.663023842186,-25669.877473606026],[62048.4435447902,-26026.62172766712],[62217.476871206025,-26309.447597629387],[62302.930855641986,-26349.19783444096],[62012.82360988317,-26774.09009829442],[62172.0144408882,-26911.781640246943],[62309.58436669839,-26769.582339471453],[62516.52008343939,-26772.69457589514],[62440.22586387133,-26656.046625454408],[62530.203584395866,-26471.450025563896],[62632.795203913854,-26515.796625785086],[62811.61975655098,-26402.460272108656],[62766.76835656837,-26268.25753611498],[62828.35996057737,-26216.77826592093],[62887.58759974628,-25841.471349030373],[63013.45045782581,-25739.121965239912],[63042.529363982634,-25566.398381195908],[62977.83004429953,-25336.126112147937],[62833.79021462228,-25322.43670209334],[62775.83595539843,-25201.690789093747],[62886.130294351926,-25182.873388046683],[62998.829097328926,-24958.149981806288],[63317.77065010224,-24837.836016201927],[63357.5682144687,-24661.922666706458],[63599.63485961947,-24643.348928292155],[63784.95981712604,-24717.953997997123],[63739.191558413055,-24792.426160812676],[63772.30537683944,-24940.993916910185],[63644.843041252214,-25213.641333931435],[63393.92241186031,-25486.80930295778],[63545.165758185576,-25659.134166315434],[63775.01600286794,-25771.274357935956],[63606.818565136426,-25853.04532434037],[63603.30345210696,-25936.62160937906],[63768.17943687339,-26086.9836085382],[63695.62461148134,-25975.66300942583],[63734.79050550663,-25910.51648032207],[63860.32729124998,-25955.461161563933],[63883.86348200777,-25870.21246477803],[64001.8503118473,-25903.30628132497],[63958.30315798039,-25828.125281743432],[64020.261515789025,-25827.914845826628],[64027.59743403153,-25725.79804910495],[63809.96367859235,-25636.07482023565],[64011.52928838243,-25015.94232942098],[64289.022329373656,-24875.62587630085],[64308.177139348474,-24442.714896531706],[64394.59884068188,-24363.912184090488],[64257.24305393114,-24294.66769243496],[64358.04120352261,-24198.14406082362],[64452.1555340054,-24242.922608450266],[64608.97190914668,-24177.222300617585],[64725.37923013376,-23895.238174308754],[64713.53969767586,-23683.384585621494],[64373.51789425466,-23876.199261786805],[64318.416605276405,-23786.81937572097],[64626.10927041985,-23643.113796809546],[64677.022819911,-23505.05676089096],[64785.77843787491,-23468.983614801095],[65164.11029337516,-23632.536623159354],[65311.52238562994,-23794.372917480614],[65382.79344396219,-24169.35864270827],[65229.29884094512,-24428.77074822527],[65398.810565327796,-24720.158037259116],[65749.91772819567,-24994.655075202845],[65899.84628433247,-24962.923554306173],[65929.75057836316,-25140.487164396884],[66265.38054991986,-25035.97804357362],[66154.64847229751,-25114.470639930478],[65611.94075376539,-25236.335185974724],[65626.36824604704,-25453.759788625073],[65931.53392107175,-25712.119714549804],[66038.99546371153,-25732.720283081133],[66144.85726308981,-25587.896071153384],[66345.04723264634,-25580.89630807348],[66572.16614579262,-25450.58109871084],[66628.69361529093,-25273.870307851717],[66601.28561424967,-25125.11426698898],[66346.7790547233,-25058.959860620114],[66488.07745310286,-24761.691441524265],[66607.97941115347,-24647.81238469588],[66491.76566137781,-24492.001202891603],[66567.5806669693,-24499.931314218284],[66670.76275390189,-24364.477038301946],[66904.13763215288,-24438.417573531893],[66844.66563917481,-24664.780164792526],[66983.67179087963,-24932.831218394324],[67275.96863334093,-25244.320675107952],[67784.08510020484,-26219.3034967144],[67956.58164531305,-26321.89654313172],[67822.80274713742,-26539.243616768457],[67846.30854351958,-26926.611834267198],[67885.59659095113,-26944.930834458388],[67958.1715702164,-27148.510969004485],[67866.48239842811,-26958.808529284895],[67773.7133082836,-26950.468621703945],[67755.179902756,-27012.314629610533],[67851.99395784385,-27032.915198143826],[67754.59914649799,-27022.515233709037],[67764.06460786297,-27127.445226348984],[67894.11454182406,-27136.682255461536],[67792.61367248639,-27174.859760704076],[67813.31740690557,-27313.703162405804],[67733.95678338142,-27307.534067423614],[67716.18755241696,-27395.817471619586],[67929.84699742576,-27687.14938277802],[68010.09440436531,-28344.24106562892],[68428.93596411256,-28759.85199803755],[68642.30986103289,-28838.998053274358],[68742.09893822964,-28813.22519145055],[69047.96670051324,-28969.545849671147],[68999.70250859698,-29189.141264923408],[69165.7902553623,-29531.609103466526],[68690.93126157827,-29609.39286307471],[68528.77649441507,-29570.129951544794],[68356.20885521614,-29719.295788672425],[68202.89796070114,-29757.539747366165],[67947.18949290205,-29702.9593163313],[67740.38736835834,-29871.496333229803],[67483.47657069398,-29933.962573318873],[67242.27675305418,-29805.8514032985],[67118.95123480573,-29594.27470397885],[67204.25190194858,-29443.7576467673],[67130.40325500142,-29217.527962406708],[66872.96244889812,-29203.916081379495],[66696.42086812938,-29316.100575312623],[66654.88107630804,-29356.404590853515],[66780.86591363543,-29541.3113068213],[66372.30420799124,-29114.59157320442],[66336.77562986854,-28819.139548330037],[65926.76724242503,-28955.39126562183],[65355.469392739826,-28871.294428602447],[64223.357218581616,-28950.484786189245],[63762.87253408895,-29228.80289735806],[63600.46240551671,-29434.210501701422],[63511.71765382054,-29687.497814528768],[63541.40801231058,-29801.055679688743],[63734.73125822482,-29903.44936576662],[63388.616024980234,-29796.824810242044],[63102.289024439386,-30019.75397342042],[63032.6076424527,-30423.613721325677],[62784.009791990815,-30456.652160012552],[62763.54034689452,-30382.335055240357],[62610.00445134933,-30351.733242952327],[62350.68789979341,-30552.345123547817],[62141.724585839045,-30625.34423496346],[62094.48904037604,-30667.996272294906],[62144.9851375575,-30889.928633758776],[62080.397958366586,-30930.055440108663],[62068.75205068903,-30843.23401174625],[61947.086808455955,-30776.75841370976],[61742.36204296115,-30983.196046481615],[61672.18113628248,-30985.145347592505],[61736.513807473595,-31386.380184342357],[61686.31329969653,-31466.046791590165],[61523.99446095034,-31462.159264951653],[61441.61741715861,-31351.89084541424],[61260.34722841597,-31306.636048086053],[61118.732118479544,-31309.96979600902],[60978.11553570524,-31398.552240718283],[60779.850364265294,-31677.313374855363],[60793.014481449354,-31900.563729684047],[60914.53724578047,-32066.01066128959],[60831.66096633965,-32108.90636125891],[60636.31980172715,-31967.12793232332],[60522.42859057279,-32080.37568140287],[60476.456477845095,-32326.452795239416],[60291.0800371455,-32336.409736703583],[60126.651946751685,-32452.85832680842],[60076.166085279874,-32556.359570342967],[60374.74114248429,-32895.63764343502],[60472.299760219656,-33177.63284531374],[60669.97412318538,-33108.03393526439],[60741.632534021446,-33233.76385677904],[60645.154156863886,-33438.45154877984],[60740.807357727215,-33533.00372812792],[60111.07369096748,-33817.291573942246],[60346.13129530978,-34196.80720912831],[60381.57857025151,-34611.24413066055],[60324.34768191904,-34718.31170917818],[60199.04485797164,-34757.6521497406],[60056.8182151951,-34611.7979093938],[59806.34492020261,-34611.19982837745],[59455.918478277985,-34297.04115821116],[59304.65433822494,-34501.10861804088],[59110.15858909256,-34358.98684629514],[59124.35167443887,-34259.6610943429],[58831.05425230822,-34212.468071483156],[58463.79559801005,-34237.964043948006],[58323.219479757754,-34442.862171864035],[58263.716306061695,-34392.94455767582],[57939.3426205124,-34604.488030283836],[57806.94803558625,-34557.00704248384],[57358.7280342514,-34589.70213836332],[57211.967103543735,-34758.42744002192],[57061.29357534711,-34814.01574834944],[56699.3223650778,-34674.61856792745],[56580.24449713288,-34460.95966060198],[56593.1435484887,-34131.21765713105],[56908.47996285263,-33703.877691320275],[56779.2436890618,-33237.35234300106],[56601.212798586545,-33029.40843210901],[56250.663212559004,-32816.624495173404],[55814.159866766466,-32721.784350892543],[55590.46225102273,-32963.054665408185],[55369.821188972426,-32946.507757135696],[55180.561999399535,-33028.74389766704],[54812.823205825516,-32500.22855897682],[54894.72173686148,-32349.312781086395],[54815.584283247,-32100.843343164008],[54656.63699903762,-31953.00657498406],[54327.62633473928,-31937.611526460387],[54291.96501350491,-31701.635336551644],[54412.479657645235,-31688.920577045013],[54489.77280391837,-31486.735964878124],[54414.58865598866,-31319.627697098404],[54285.19943149631,-31250.959135314326],[54172.102322566636,-31281.95966829107],[53914.149189328295,-31398.729450056057],[53820.40085320599,-31507.657725085734],[53577.05850349688,-31353.95090243098],[53587.10472762268,-31123.612179933778],[53469.51420229256,-31033.457003654297],[53493.84535483957,-30944.07711758532],[53586.62578940537,-30918.60329627598],[53658.56979573487,-30712.43147729594],[53705.82596673721,-30349.064029697976],[53782.28376354409,-30493.83286374756],[53789.17146466823,-30432.79537277884],[53851.354523000606,-30440.559350489126],[53847.747658288936,-30500.788324520763],[53972.643582620614,-30487.94065812078],[54001.44764742329,-30336.172060997193],[54147.974631878904,-30244.15618820056],[54122.61432369429,-30035.536667262022],[54227.030370259046,-29675.934914986185],[54315.195158824725,-29629.58363577791],[54361.96236782001,-29722.596310274883],[54233.18455180634,-29907.669159868114]]]}},{"type":"Feature","properties":{},"geometry":{"type":"Polygon","coordinates":[[[46266.10050056017,-28372.57238563305],[46414.43178048656,-28353.090450118834],[47098.32656706456,-28011.719093436917],[47407.052581734744,-27405.23171038785],[47556.82037190002,-27294.631023610957],[47727.66917349169,-27340.849395921945],[47738.958591265364,-27489.616512360077],[48052.45305931321,-27637.86307679626],[48209.40407985999,-27866.474009673202],[48664.21946542986,-27916.02612990047],[49031.83744980492,-27673.304915128636],[49088.79376672314,-27597.913479631083],[49061.85411068537,-27489.749419242802],[49255.39352205367,-27355.159038137386],[49268.34366659876,-27209.736745192506],[49191.40675345887,-27109.314511367258],[49301.641179890255,-27075.40110230312],[49395.267611193034,-27166.220813051717],[49475.35287651261,-27146.107569792995],[49682.616735022275,-26888.367876025175],[49782.2035005976,-26179.807998552868],[49691.185471310695,-26091.092646954974],[49801.4198667339,-26102.201448158507],[49810.87519919551,-25993.694044961256],[49754.672832717384,-25788.76269032612],[49175.03268182463,-25301.271279515815],[48639.58195074294,-25207.217501021638],[48572.38566390919,-25111.557764223973],[48753.066663769154,-25007.857160349202],[48780.46477835731,-24886.44671287931],[48712.53487292758,-24700.321683713482],[48869.536688639,-24595.148028433297],[49094.13214495464,-24692.901048807846],[49077.850222960034,-24913.39358559131],[49256.18775240885,-25070.378778294013],[49558.57585702315,-25004.04716272037],[49800.34974045383,-24862.744983479235],[49820.10610173209,-24701.61752591806],[49617.2336299982,-24591.05006586893],[49670.40980444174,-24471.21234997516],[49582.89671928522,-24143.164909400664],[49731.21744097196,-24050.119008177502],[49724.66587775768,-23788.447485471155],[49850.285592244974,-23765.997295996098],[49934.80295770826,-23452.746822926965],[50205.73758408827,-23365.039348602444],[50273.504301760215,-23154.81386936396],[50150.258610868244,-22990.31943716189],[50100.903291020615,-22999.80012891822],[50060.88102147521,-22856.526497422878],[49801.47007947463,-22921.617648654374],[49424.671933106016,-22575.616701849638],[49295.261825620255,-22325.78496826439],[49533.316736233726,-22013.863564132713],[49607.55353382798,-22041.61895378219],[49759.43019307388,-21933.29983534937],[49785.88069376498,-21734.282837487088],[49619.5356330886,-21506.469345972226],[49638.35460593366,-21319.646555613446],[49563.26190334296,-21140.57666739349],[49773.837077491524,-20591.937009862857],[49843.37673136326,-20541.310558905116],[49961.69096460601,-20604.984036599915],[50080.840660625545,-20575.00245647666],[50574.56667451931,-19207.379443888225],[50730.95693819783,-19149.53171836861],[50821.03750541958,-19231.61280085148],[50882.874224232015,-19056.696253059494],[51020.924344870706,-19031.20028060133],[51086.755192013814,-19134.00376294017],[51169.04116810467,-19136.93879017718],[51195.491713540796,-19246.775262312283],[51370.690737533754,-19312.231907498037],[51332.31921879052,-19581.20223378813],[51534.987670354196,-19796.732913200645],[51723.29982260271,-19845.952766195514],[51770.739528622,-19720.544036337862],[51929.2897131644,-19678.667289219673],[51938.25603318629,-19861.94589574498],[52162.29060269325,-20047.284559119402],[52329.12438801457,-20144.018626640853],[52534.72702522043,-20058.005715213163],[52639.999201581195,-20207.226930204397],[52813.49648147352,-20261.275733673723],[53109.831547486065,-20251.70643731697],[53446.70827463544,-20101.08969993393],[53630.86295790046,-19763.05209117262],[53689.5308294049,-19761.667644362904],[53610.811183968064,-19921.83152694364],[53651.58730039216,-19951.63589787471],[53602.3441851425,-19936.717099047848],[53495.90044145764,-20081.37517735566],[53553.06036865741,-20119.785269657532],[53793.6006621621,-20057.65129681148],[53728.18775367426,-20167.952943076656],[53758.112704282874,-20370.60272936929],[53543.04474018027,-20446.115996187946],[53581.477462728326,-20680.23148958386],[53355.43601936756,-20877.85296506575],[53468.75736295829,-20931.536274576098],[53427.11521055655,-21007.09384369201],[53068.04690261437,-20919.641107589425],[53046.85389059533,-20837.91444348817],[52627.69116581951,-20962.14916245605],[52450.83158286567,-21184.956494307815],[51876.92912312163,-21233.711173184416],[51707.14054227418,-21364.790597178613],[51640.2704029796,-21078.25440976136],[51579.75823819355,-21079.14045572032],[51314.51954403425,-21258.498308881313],[51379.973383109485,-21341.64264651572],[51273.86563606663,-21283.218991125046],[51233.2117399535,-21360.360367391688],[51359.310204623835,-21392.568137983606],[51209.09449746872,-21383.142824100323],[51153.12663282996,-21574.21863506053],[51366.81958300496,-21876.282777899924],[51394.39093065452,-22066.45039175077],[51519.15466969171,-22258.379021943747],[51335.11170750259,-22427.580573304283],[51572.932107351444,-22902.00280622713],[51515.72122814485,-23180.75286478606],[51406.42436706635,-23199.64779485264],[51518.68622609913,-23234.458325447595],[51487.21259019651,-23350.585723889137],[51375.34810596301,-23349.666451208708],[51445.193408564875,-23539.479646676366],[51656.5734022904,-23741.453822923697],[51598.49639216161,-23732.294322827907],[51557.01720076188,-23812.60331339561],[51699.642158692914,-24020.934869395867],[51644.550555290036,-24180.33453733953],[51706.9375433773,-24401.735271227637],[51349.315796624694,-25176.671066572424],[51131.11940123071,-25214.78211836691],[51063.026608781314,-25135.44777835583],[50857.454284673884,-25184.512573311273],[50611.380883998114,-25470.107336901634],[50780.26289492753,-25734.66958454576],[50818.49190361382,-25932.878065470177],[51016.37165077538,-26187.538749527517],[51004.97025351026,-26357.925387355186],[50747.85207906256,-26770.944635357813],[50694.30911656196,-26777.180183791203],[50865.819756292774,-26573.145950687278],[50851.24953146702,-26494.586900887087],[50788.15952076547,-26495.783062931583],[50787.73160347525,-26573.145950688064],[50777.93999814759,-26494.90809254881],[50696.326461916506,-26496.55835314759],[50695.32796909145,-26599.273230890733],[50626.54232376811,-26598.49794067748],[50678.70977928708,-26590.52352705118],[50680.51320205738,-26497.56623042529],[50566.478410673495,-26549.20055866034],[50564.68518320302,-26669.79141361775],[50654.64348583791,-26680.025244438115],[50564.501784931956,-26682.096376867354],[50562.841023740955,-26843.64470625741],[50593.41807326186,-26798.73325173466],[50692.05736892293,-26825.46968853222],[50611.727639428806,-26842.514997660972],[50606.89816828818,-27234.346671675972],[50847.50021741452,-27400.712875964302],[50842.955974476354,-27527.97122676017],[50744.2963370859,-27609.28809460676],[50769.88083857913,-27745.993910435132],[50693.19876168995,-27773.84898025728],[50722.176187661345,-27915.25083966597],[50766.71212151854,-27944.235618084163],[50857.56702346258,-27884.959143456785],[50899.209284733966,-27893.553789253372],[50938.7322477654,-27924.864438313292],[50886.45271318563,-27893.553789253372],[50750.3282860985,-27967.760138284186],[50831.27956086609,-28057.12894877462],[50956.59349431105,-27962.698600743708],[50856.476845109966,-28048.024826551486],[50890.49777788656,-28096.070668653443],[51076.20165878651,-28098.352236994368],[51192.89575603376,-28167.30876371594],[51057.91256111399,-28398.06835804557],[50933.14884413511,-28509.455410610717],[50645.86104288878,-28492.177514421845],[50511.163045004,-28568.787263114293],[50436.6511735239,-28482.64144479522],[49864.43909874642,-28262.016001124302],[49574.74648064355,-28251.505280944588],[49406.750848759075,-28381.299938298594],[49353.35046000563,-28305.81989820534],[49237.40001600819,-28298.000542622794],[49302.55842674782,-28149.466013246358],[49251.45055927581,-28107.223772173907],[49023.21766959426,-28070.67437638526],[48656.4045840491,-28193.613253136766],[48545.18179679467,-28330.29691781749],[48479.890916336655,-28589.77547677743],[48299.3932748563,-28695.059887802538],[47769.23026249413,-28560.990058704578],[47389.18136384756,-28678.889549066396],[47415.265142055614,-28620.532347122986],[47606.359450040894,-28595.424019770267],[47628.21478982867,-28496.818180159804],[47266.02712340013,-28537.3215560421],[47222.581327498745,-28644.898610983528],[47318.50039840347,-28648.53139941349],[47234.5431969476,-28670.416734589733],[47171.01493321346,-28862.93237023192],[47325.02136980475,-28767.483069346727],[47294.7804608044,-28700.763808670392],[47451.599078258034,-28785.14861064459],[47340.05011761825,-28772.422775566494],[46949.99554477325,-29001.609638320795],[46716.43344886245,-28969.45724560193],[46496.3106112202,-29051.903822044565],[46120.846376001165,-28911.188648257365],[46047.118814422,-28730.41312156676],[46266.10050056017,-28372.57238563305]]]}},{"type":"Feature","properties":{},"geometry":{"type":"Polygon","coordinates":[[[55402.51236510534,-16795.73955386293],[55417.06200218656,-16359.937849154036],[55501.13072544642,-16259.460237453772],[55487.24330687045,-16496.80979859841],[55561.68360385525,-16724.911255049195],[56043.00790036384,-16674.74997821248],[56361.27887486165,-16559.45324785134],[56404.59198931731,-16741.4692388837],[56519.624778297395,-16766.43358376413],[56457.99205329786,-16715.79605723335],[56528.39740457958,-16695.18441312348],[56397.327267863926,-16653.684235541237],[56448.77105043865,-16594.496365509953],[56499.501651434504,-16668.25969155755],[56582.77557323402,-16594.994766358745],[56529.88493220383,-16536.416052925888],[56460.28451121052,-16575.712191188686],[56457.187068380605,-16531.95259641199],[56304.48587796708,-16519.337517079603],[56533.552931865226,-16514.56394447387],[56576.22409507325,-16563.805948619534],[56792.64662512817,-16439.74843884462],[57182.68803807808,-16340.743878544265],[57401.09725747175,-16116.26413494332],[57812.37210577967,-15946.973978980785],[58236.16912300103,-16227.750867659495],[58291.63754155787,-16455.165638492726],[58587.13582963683,-16577.340300594176],[58951.123699735836,-16571.0715254283],[58979.39776950193,-16325.93583542337],[59121.03346914633,-16293.805593847823],[59218.82634318808,-16165.938086453127],[59289.51685738494,-16249.3260867262],[59479.00971507595,-16250.932045021425],[59586.18660672306,-16350.878029141988],[59553.53128176475,-16458.366479488504],[59612.93245928269,-16448.553520496625],[59601.857165047724,-16500.24322660197],[59541.121255663136,-16541.832008782665],[59610.87439314083,-16674.262652859998],[60117.17012204573,-16977.766620371534],[59971.662941464885,-17443.073655502933],[60401.0120810605,-17600.867365133272],[60551.25716874453,-17476.92061110446],[60207.50509543766,-17953.657639105833],[60303.15836908877,-18211.60776878416],[60596.39431612375,-18551.018748769562],[60819.38803507579,-18697.92516869014],[60751.723786486094,-18813.698148750067],[60773.1918198139,-19008.838695543724],[60602.70151458658,-19250.76246895348],[60525.01133248003,-19201.1771220012],[60538.77645848142,-19096.2692805089],[60457.86660011976,-19076.72089155096],[60431.87480669176,-19140.87061895005],[59922.14563859295,-19082.602021614144],[59606.46360284356,-19230.660301294552],[59647.12749178749,-19386.4271808059],[59574.34837085322,-19552.77123394894],[59737.65584550118,-19748.27727469725],[59737.25851226141,-19832.85036143903],[59302.00986224901,-19983.965499678336],[59277.138835760554,-20094.05671002868],[59463.20841687545,-20542.05262223675],[59651.132217357335,-20655.577260670532],[59747.54965994913,-20796.901591056165],[59895.04390891863,-20830.23907024216],[60003.83055634316,-20782.680553414386],[60039.98065521368,-20673.87410970542],[60369.712975233066,-20368.08857382974],[60419.85245011012,-20414.716742396577],[60326.72616510518,-20509.700869154443],[60373.77842130287,-20577.74919876981],[60499.458224244445,-20648.090172299526],[60623.14093869558,-20582.02437051298],[60596.21184405838,-20822.44186578955],[60525.90866478994,-20949.201815734665],[60196.3902391021,-20969.41473917314],[59954.26181234739,-21170.281357979933],[59886.57714869609,-21334.941923802337],[59809.51864543028,-21334.554278697284],[60045.116285655946,-21769.85758254873],[59745.05381812263,-21905.201102721723],[59556.76342424675,-22296.30178882742],[59441.761452265826,-22189.78798903989],[59492.043565822605,-22114.66236732865],[59460.345916842554,-22034.098638548454],[59095.64486968233,-21837.68440069708],[58685.44021648353,-21884.82204570148],[58543.76375645285,-22087.64904118945],[58371.275979852435,-22059.0297567322],[58466.15489999101,-21915.822578680978],[58431.75714080832,-21760.598402319618],[58659.99839573632,-21453.295512743232],[58597.0004159528,-21276.252454654074],[59054.114621828216,-20931.968221877283],[59122.4208233698,-20675.269632112173],[58956.7086056189,-20272.052267533112],[59000.91811985694,-20085.50636653486],[58842.44008514885,-19912.73848019871],[58469.85264539735,-19679.198916683694],[58319.73968494729,-19675.001273957678],[58402.972691855364,-19507.42783204709],[58368.544361885586,-19341.493575162647],[58229.99575986628,-19269.557718906803],[58124.46929044898,-19028.719351803316],[57762.75316766111,-18739.89052047525],[57712.19578919851,-18557.154617100718],[57832.496077812866,-18471.45182175856],[57806.98303573498,-18352.23433803665],[57688.445361815895,-18261.536458607974],[57446.897132919934,-18310.66770701462],[57495.48794411387,-18151.943649115867],[57705.13474889011,-18179.97592812587],[57645.74363904541,-18126.935001933456],[57781.60240674988,-18114.50820736157],[57628.25945334598,-18028.284860023767],[57627.99455953461,-18078.069567319417],[57601.81929845193,-18138.298541351443],[57673.32488081505,-17822.600366321843],[57613.98469103506,-17703.61546966556],[57476.10851561216,-17752.359072963616],[57299.677466011584,-17646.35474960067],[56788.21485375809,-17630.837869762185],[56579.17925200146,-17680.855164125824],[56226.93853939989,-17916.011761529564],[56143.45070659695,-18242.630452999052],[56193.98774064854,-18342.687192866106],[55951.88904928438,-18513.14028414419],[55906.44658653147,-18797.527810113872],[55802.906847672166,-18821.661486911144],[55349.40823191896,-18411.12316760423],[55173.98561154412,-18409.052035178138],[55142.277724846084,-18512.56435428533],[55065.73855925671,-18526.64140945324],[55037.515205361764,-18386.491089961706],[54872.4342528098,-18239.119495909476],[54769.0065304056,-18342.532134847537],[54803.07826370285,-18260.284918745518],[54661.96163940985,-18142.717695624357],[54479.48819098791,-18154.324897684943],[54574.15339884622,-17840.166227506845],[54431.51861951194,-17787.003469996478],[54384.63932907106,-17645.23611663038],[54482.452976955676,-17515.640819618962],[54624.08922233398,-17525.608836649477],[54592.483145233564,-17412.660128084786],[54679.09919637847,-17439.21935569134],[54672.975584183325,-17211.07359694133],[54786.07262255219,-17180.073063964584],[54834.9895437323,-16865.515673106824],[55035.70112013447,-16904.280183789917],[55090.721272407274,-16845.59071461057],[55402.51236510534,-16795.73955386293]]]}},{"type":"Feature","properties":{},"geometry":{"type":"Polygon","coordinates":[[[48903.65454044409,-48418.15495999953],[48925.9683139728,-48069.73953795185],[48810.46610958932,-48013.90756699],[48943.77863202658,-48046.4586803905],[48797.01665212736,-47952.847924872454],[48767.53996246703,-47997.16129837414],[48782.731710939435,-47948.34016605854],[48678.22340016621,-47902.22147391786],[48612.78974821237,-47618.44310454543],[48310.66619333372,-47340.22467356581],[48457.254929332055,-47058.1851693859],[48732.20440670292,-47082.994456222965],[48885.181712422615,-47397.18635312057],[49031.648182756806,-47402.0596058911],[49130.24688453751,-47540.31600214598],[49133.94552456074,-47739.16686639226],[49299.01704441873,-47817.31611993424],[49516.55152234243,-47809.264177283316],[49586.93690303153,-47777.12286013709],[49612.14437219042,-47619.074412281276],[49782.68728957076,-47603.05913157905],[49807.90492326891,-47355.619722081225],[49926.70826024703,-47366.728523285936],[49908.54136443985,-47490.70850403425],[49970.13367259599,-47562.11273271826],[50069.39457400916,-47617.32447150786],[50121.236010799985,-47574.59490515769],[50205.733126304505,-47765.316297732345],[50091.11753268101,-47996.13126993424],[50026.92717277011,-48482.76986151492],[50075.722166406325,-48676.1050896688],[50225.6629710901,-48762.80468671051],[50204.021734277034,-49277.19866794185],[50470.12689673597,-49448.19446236323],[50208.61709183726,-49855.28827801839],[50357.335218144115,-49979.36793893544],[50606.200592854024,-49980.23183374203],[50789.96865091823,-49916.80201868393],[50868.780164497155,-49585.42083018725],[51004.77220347469,-49670.924265184854],[50851.21448523389,-49934.50078670443],[50968.48942300497,-50065.901402354844],[50939.756585277064,-50159.091286045186],[51012.80124728796,-50265.13991170697],[50592.924488492725,-50443.54526546488],[50374.10635425398,-50422.96684807924],[50154.88067992667,-50628.762097526866],[50172.28345064915,-50718.96157610753],[50288.559907174546,-50763.363554203745],[50337.60962013391,-50966.290229857295],[50263.444152815275,-50928.33423610971],[50270.95339686718,-50836.61740382597],[50203.15603785313,-50839.92900059697],[50266.12381613148,-50783.84229142026],[50144.23325135904,-50793.577721390655],[50154.11657316742,-50909.749422129455],[50223.63586870017,-50903.469571398804],[50157.550257548246,-50925.399208873096],[50215.19944597283,-51069.1047877739],[50316.14148944634,-51021.5462709473],[50200.527344625945,-51093.58180737818],[50205.64225141473,-51295.567059202476],[50329.43820788198,-51541.810306653846],[50664.166032941306,-51841.637183447216],[50180.006934370955,-51787.499775384946],[50032.878318996954,-51899.695344887565],[49918.282976089504,-51669.15726205053],[49670.35484257352,-51599.66910775397],[49260.28964873602,-51782.13919734534],[49131.17499681486,-51710.39162585354],[48599.29024733768,-51801.07842971626],[48415.09397757999,-51945.1938048737],[48362.02975939094,-51806.6494436825],[48114.44777300805,-51693.545677076814],[48088.22129197394,-51448.00019081565],[48251.387541995005,-51247.344007927226],[48319.500852315905,-51241.4518023032],[48345.48273047773,-51181.99811848442],[48267.903849751354,-51130.66283076227],[48376.19230126025,-51160.97667811792],[48358.911753539054,-50952.811255733664],[48485.92752664604,-50942.167628655094],[48484.419542229814,-50866.31101902943],[48784.07722994594,-50618.30675523083],[48845.52690046055,-50493.31889720324],[48740.98799907759,-50331.47152730186],[48675.37093332615,-49987.286974707575],[48696.207364603186,-49890.73011637398],[48845.455421406456,-49769.729465159544],[48841.15566336468,-49716.57778322221],[48735.38392843388,-49701.736513416836],[48846.18901124439,-49694.670296897144],[48770.92304678501,-49602.4107614642],[48691.90756654543,-49652.217619909854],[48693.89444240823,-49773.42870703834],[48679.640041413324,-49650.257243226326],[48737.044712327544,-49614.06226581969],[48723.758267312376,-49505.27797325915],[48587.17505613454,-49449.22449080864],[48743.23951192175,-49165.136005349494],[48721.42490351171,-49090.9961097691],[48516.7691416579,-48987.99326709042],[48605.25015416208,-48777.83424129763],[48903.65454044409,-48418.15495999953]]]}},{"type":"Feature","properties":{},"geometry":{"type":"Polygon","coordinates":[[[40359.160579737676,-67179.30316179777],[40417.94108258887,-67106.71384664465],[40391.97944426598,-67178.40604026498],[40486.278922938436,-67277.11156004654],[40618.35928513913,-67146.9292575867],[40568.16812540508,-67100.93239676437],[40513.819853502464,-67159.09023836874],[40559.85387711571,-67093.22379692516],[40459.76704044699,-67046.63993065401],[40525.70024785194,-67052.87547908741],[40645.38058974111,-67161.59331820028],[40773.35475677116,-66994.52935271703],[40750.16452278387,-66934.66587264319],[40895.31740855937,-66985.63566640756],[41234.82592600847,-66948.70970108375],[41374.56838647739,-66902.60208451531],[41424.3315665559,-66818.48309632546],[42127.638936549054,-66702.17848868937],[42075.44058399317,-66655.91581407994],[42157.482572214874,-66693.15189548692],[43217.52736172934,-66489.9594060392],[43739.35755984479,-66552.70253547502],[44006.462425261736,-66629.82176059087],[44000.980748625516,-66689.0539329202],[44027.8797211524,-66644.31968758687],[43975.53878077224,-66588.94181517852],[44043.71343764422,-66638.98126068666],[43912.896816539054,-66944.98830804431],[43654.442455230645,-67197.62216197557],[43587.24596638396,-67404.85723610439],[43607.043249516944,-67640.35717631041],[43545.67487405008,-67858.82288296387],[43652.99572812304,-67921.7764483173],[43669.73628760182,-68027.24914410683],[43573.81693024461,-67919.53918227166],[43436.21437745793,-68167.53237049408],[43559.603331143364,-68376.52846096542],[43544.40139277638,-68801.23244004422],[43358.47229847169,-68685.10504160267],[43214.52194510288,-68761.42682535763],[43164.07613275056,-68696.53503446911],[43085.2743112035,-68742.72018005824],[43051.99698199992,-68670.26377179926],[43000.82776229356,-68723.27147126941],[42859.251394014325,-68638.91989601709],[42696.807953349075,-68856.77644607487],[42473.94360272215,-68922.49890504929],[42530.533428142604,-69092.02164806801],[42403.33374295684,-69143.85533664211],[42359.11339973997,-69104.27123344614],[42218.73930598186,-69198.55759900948],[42155.8221539282,-69489.02561536881],[42242.92807701509,-69485.21561774705],[42271.29431430753,-69551.19281493436],[42166.887430502655,-69500.89863121373],[42136.513975620925,-69584.48599182782],[42336.504081569256,-69900.64934098355],[42390.62813617771,-69835.0819400517],[42410.883923745656,-69976.30659026743],[42313.44635785497,-70075.04533677321],[42345.02213949319,-70173.46289161884],[42275.72661900535,-70129.13844254294],[42272.62918654142,-70335.95264484092],[42173.765122662764,-70243.92569647203],[42254.635347860574,-70111.63903486227],[41679.99493409568,-69845.09425938656],[41614.1432707625,-69759.38038847216],[41551.51135120307,-69785.08679684397],[41537.64408322357,-69727.99221039076],[41447.909375243136,-69880.5693244526],[41371.41017543124,-69813.32951177354],[41417.89249173652,-69732.38921346093],[41381.63993475643,-69656.73196417549],[41016.11883950107,-69578.09538535697],[41135.50365145378,-69553.64051690073],[41216.29243919208,-69607.04693705212],[41225.47273422471,-69481.95939885422],[41226.9094032533,-69607.7336226689],[41298.75221733402,-69615.8963210608],[41297.41744673864,-69552.33359911092],[41377.65601931547,-69603.53597994012],[41377.14655683277,-69518.50879464326],[41292.190472941926,-69520.23658426196],[41285.49626098891,-69346.98137264376],[41302.81762258423,-69498.48415597985],[41393.795416863264,-69480.28698710701],[41385.21624493443,-69376.39809846702],[41321.76919201118,-69378.18126595915],[41384.32979782352,-69361.10273010815],[41372.31692879782,-69287.43908422967],[41207.11208911793,-69313.00151013432],[41214.998403563935,-69382.56719345432],[41196.41361317032,-69315.43813652056],[41086.688003764895,-69352.51915988537],[41089.25564856264,-69431.86457547422],[41067.9707603682,-69328.78420377092],[41022.00806657158,-69346.17285570943],[40818.67587541186,-69545.13447569906],[40912.30285402827,-69617.10355868188],[40787.32423841612,-69547.56002651148],[41255.28576645328,-69069.12843561957],[41311.53935388916,-68941.593195462],[41267.01329361555,-68763.99635864746],[41313.70956082873,-68523.65639239276],[41093.73866292852,-68226.06678164305],[40895.84738415412,-68124.39300790065],[40847.43932192725,-68158.73836436868],[40816.1284331462,-68092.15201058451],[40875.67310470061,-68074.25388222143],[40769.16719297295,-67988.15236620118],[40792.62231541704,-67842.2538235524],[40669.2943272013,-67863.25311277008],[40593.0192384333,-67678.25779220069],[40448.956556797224,-67660.42611728644],[40483.21205960077,-67553.05949825866],[40377.91862708413,-67531.6282616375],[40331.03888475779,-67401.93328445616],[40252.970531384795,-67369.51507794902],[40276.22186827544,-67122.20857534454],[40359.160579737676,-67179.30316179777]]]}},{"type":"Feature","properties":{},"geometry":{"type":"Polygon","coordinates":[[[60550.49979429719,-9154.191242356008],[60414.12175443239,-9196.66607049684],[60214.399518260114,-9371.992414548607],[59938.44420000634,-9880.926137566892],[59793.161191902225,-10399.971860083653],[59734.91135635055,-10364.840137829338],[59764.33672294258,-10068.457764695986],[59580.233661493025,-9576.956995923703],[59480.85126868203,-9454.57189790309],[59209.08320289793,-9455.95634471989],[59078.65524602169,-9330.802353078661],[59061.344287418055,-9217.831493365147],[59117.38314264839,-9187.938517837592],[59060.32538797014,-9189.046075286784],[59225.375025611,-8927.65144193939],[59282.43277226752,-8927.651441937816],[59251.87627921365,-8843.488151451884],[59809.05511533825,-8554.891907167019],[59975.133741780664,-8358.256157813215],[60490.833121461226,-7589.002132168569],[60457.93318303297,-7416.511135191371],[60580.5052510367,-7272.960614328814],[60683.53513265008,-7324.916134220863],[60774.9497797905,-7584.450071049525],[60961.56915916136,-7733.715588335659],[61333.45261503038,-7811.222458548692],[61535.19216443987,-7934.161335289572],[61782.82245388795,-8398.117150324459],[61809.272858302356,-8681.784763950001],[61583.080165760424,-8744.915538503079],[61585.12816988913,-8844.573557690472],[61528.865281489394,-8869.438222402558],[61229.85267151465,-8839.777833949289],[61117.44914356845,-8940.953206842898],[61148.58647602397,-9313.125736153466],[61130.4909889012,-9169.741348912812],[60975.89528470714,-9117.763677873903],[61132.69178030823,-9160.792284730675],[61086.25084915165,-8978.023154634671],[61005.90144209261,-8978.34434629718],[61059.60698144995,-9024.662398778084],[60994.27594541656,-8981.556262897471],[61073.34158958594,-9061.1896434183],[60977.82094360599,-9028.760361338514],[60942.649004675324,-9109.357316844113],[60848.687243148044,-9073.627513567157],[60930.014798913624,-9087.527359540525],[60961.63082900552,-9020.586587371203],[60829.64421421228,-8995.234597386509],[60883.85916299163,-8939.679515784395],[60827.70828143685,-8880.281209840243],[60699.909289627416,-8885.420276402596],[60812.11935812343,-8993.108087085795],[60638.76588583323,-8907.416367325726],[60649.89216746331,-8991.701489131974],[60821.90069671299,-9051.110870646802],[60647.03928825422,-9002.987499528479],[60608.93295170644,-9103.498337951392],[61010.007653228524,-9211.640247181009],[61070.5091955142,-9325.962326980018],[60550.49979429719,-9154.191242356008]]]}},{"type":"Feature","properties":{},"geometry":{"type":"Polygon","coordinates":[[[50424.37561717362,-37466.416476491366],[50263.6141506856,-37254.2195449975],[50347.8971544755,-36923.12632143871],[50322.33299372559,-36672.519297639425],[50399.93209485919,-36591.93341771001],[50631.394684660896,-36629.5903709447],[50748.30287631524,-37006.55862400471],[50907.08761121978,-37144.56028204671],[51064.751459387335,-36942.807617284496],[50983.44359005401,-36915.5838552096],[51053.57416498655,-36898.93726676288],[51164.2364258903,-37000.71072067401],[51423.4637147156,-36768.36731919326],[51486.82878142353,-36667.557440258235],[51477.088098445456,-36488.88627271834],[52036.237252761865,-36400.55856621881],[52308.60809033531,-36103.60026321124],[52727.87292062948,-36046.78256611265],[52956.20710233911,-36079.44443525688],[53176.04359726816,-35851.210071909205],[53793.69700435005,-36187.02149018611],[53778.32194839692,-36344.71551965795],[53247.8859686971,-36451.86062720336],[52274.44482441422,-37119.45195467943],[51866.35710585707,-37118.17826361857],[51375.46368171024,-37252.77972030174],[51139.80337382702,-37244.03001646377],[50929.59505764039,-37318.324970090274],[50813.930056231206,-37449.07212684933],[50587.42953847275,-37499.35523499967],[50424.37561717362,-37466.416476491366]]]}},{"type":"Feature","properties":{},"geometry":{"type":"Polygon","coordinates":[[[51870.364972122305,-51128.8242853601],[51796.49505904278,-51062.71418127904],[51559.28604279657,-50997.35721626557],[51480.596766611714,-51044.72744832497],[51417.17051204684,-50982.90359156839],[51363.54601609096,-50869.05776147013],[51458.395023467536,-50994.69907839066],[51442.21494401321,-50913.32683267417],[51492.7521616654,-50938.213648533114],[51534.09892003819,-50877.91822105343],[51393.674722827454,-50741.53359688638],[51382.96615448693,-50832.72987716975],[51252.85315338759,-50649.26298588119],[51362.598317571894,-50365.85011046578],[51513.17067649172,-50349.79052746472],[51755.769668166584,-50470.55859161195],[51929.725612294256,-50405.644649571856],[52065.829572550676,-50283.348156142216],[51962.849797374176,-50049.210511598656],[52066.695625182816,-50252.358698741264],[52144.223329480716,-50218.987992827504],[52077.383787278406,-50076.75546533369],[52150.34688733516,-50217.80290635801],[52189.11582173925,-50161.64974373444],[52149.8068261761,-50038.34537302986],[52039.41974216067,-50000.190018941255],[52104.03804976327,-49967.96009719894],[52090.70069964234,-49907.12196657084],[51963.9094381879,-50010.55675665812],[52161.42215596575,-49764.391038223126],[52363.30599165163,-49859.153653486435],[52515.95677867947,-49828.795503828806],[52551.99503319574,-49655.19694940202],[52713.306439290114,-49767.81339073077],[52742.65056868353,-49657.135174933974],[52910.92097609764,-49682.38748474993],[53081.881198031435,-49544.83992525868],[53439.41113706557,-49660.90087024863],[53636.485687569504,-50060.3746906532],[53646.990509915006,-50159.501082265226],[53537.93836705228,-50358.05290600215],[53814.180862555695,-50486.72893032685],[53831.481700728014,-50574.48070694626],[53585.31698521258,-50560.34827391081],[53438.1886816073,-50435.27181129067],[53188.04005168331,-50546.45950351638],[52676.9830156339,-50374.86562807669],[52589.76567945196,-50498.5022660176],[52145.14045601668,-50682.96595901869],[52132.69978603757,-50822.96122046805],[52023.6780266502,-50815.739945906964],[51970.043425974865,-50938.23579967565],[52090.07948968586,-51120.80556943182],[51948.371625213455,-51311.38297954166],[51871.42466483111,-51291.45802105013],[51870.364972122305,-51128.8242853601]]]}},{"type":"Feature","properties":{},"geometry":{"type":"Polygon","coordinates":[[[66900.13446379044,-63967.419788345585],[66775.49446156208,-63778.40403424394],[66657.50782634072,-63732.76159180991],[66641.69469124555,-63591.19359878443],[66546.88763406164,-63560.73576896358],[66480.46659331858,-63431.17369867835],[66364.89467811491,-63382.92849624089],[66273.82696035075,-63471.57739439585],[66336.24367039434,-63348.538837476],[66304.0163571307,-63265.7821449494],[66137.97916289298,-63260.499095928135],[66315.71301913158,-63046.49684578307],[66348.89788946655,-62763.26117955945],[66338.33216336509,-62935.28700241208],[66379.97394502972,-63001.12021712946],[66443.10392174768,-62983.80909421125],[66453.10925837174,-62807.131530079096],[66394.37065377325,-62797.5179314302],[66486.76290709066,-62708.43708586979],[66389.06219747661,-62652.85985312396],[66369.40797958824,-62717.67411499178],[66382.95906962967,-62616.69810244154],[66209.7080719906,-62370.85357567614],[66338.65775216183,-62072.034576153],[66481.17904813742,-61988.27000634161],[66820.915215554,-61857.85511680473],[67070.36822613103,-61924.6519064935],[67347.93207218163,-61879.61862063862],[67572.6465588632,-62034.22256482025],[67496.5565842128,-62250.90510398512],[67489.12911752598,-62580.35914252012],[67379.5178912842,-62747.67784622176],[67076.55339929201,-62952.0000442742],[66953.15667564774,-63168.98162395196],[66929.28430949949,-63259.7791835537],[67021.59509804151,-63341.00744679908],[66955.25567877846,-63364.12217074601],[66977.04962979972,-63468.57591368324],[67068.78981452232,-63501.65865465557],[67011.82413415764,-63558.78646783656],[67111.95992857037,-63633.358310817304],[66942.17342117065,-63721.13223859224],[66900.13446379044,-63967.419788345585]]]}},{"type":"Feature","properties":{},"geometry":{"type":"Polygon","coordinates":[[[30477.46612145741,-46727.06979475344],[30532.089769980736,-46603.44423238832],[30443.699496647067,-46464.379319194],[30481.979863643694,-46365.35260775347],[30557.42999915196,-46403.6408687366],[30599.031999489645,-46225.65638681504],[30749.63677103347,-46201.777448231434],[30715.065217093088,-46013.980007317994],[30851.33394392124,-45918.774369073435],[30903.634449849287,-45392.92824382801],[30989.436669438368,-45365.06209843165],[31123.18869359903,-45553.97817236653],[31150.739949931834,-45440.04373767297],[31272.55036631935,-45608.95732409325],[31325.543748394495,-45587.04983776857],[31480.050896701174,-45747.590289882115],[31584.366643588066,-45741.36581702333],[31524.454894273425,-45898.107347089724],[31739.15906857944,-45912.38376259629],[31915.705138523834,-45844.73415366059],[32106.862337357543,-45997.0786806576],[32161.618419764996,-46150.48646280457],[31981.16995457302,-46211.34674458189],[32015.486757377,-46311.02691491811],[31822.271369836926,-46357.89874612479],[31751.824122048754,-46469.562688050464],[31815.38357192497,-46608.37286303033],[31742.684535655,-46674.47189153677],[31413.557057131115,-46818.288226184064],[31122.597801092117,-46807.68890140511],[31009.6620784859,-46920.70406341746],[30831.872860290245,-46881.51868090116],[30805.289559851753,-46957.91799367601],[30636.344441882502,-46847.992916945215],[30655.775025918538,-47035.08152109149],[30477.46612145741,-46727.06979475344]]]}},{"type":"Feature","properties":{},"geometry":{"type":"Polygon","coordinates":[[[59997.88134630701,-23545.549061338334],[59915.63667582521,-23465.8160006468],[59945.42891701776,-23353.398919656305],[59863.66315805713,-23368.893648357374],[59901.02574337705,-23268.07269384892],[59674.374031726555,-23152.78703907498],[59695.82161332882,-23112.848517492675],[59307.27860700487,-22830.565350684723],[59267.796606345124,-22651.38470672024],[59376.17576921055,-22623.097689490274],[59504.06666979633,-22686.25061518313],[59812.881486855564,-22634.527682344902],[59858.252528277524,-22520.216678118537],[60103.66180540889,-22330.768976600808],[60092.1788589491,-22128.816951501518],[60177.44962503531,-22242.04254942634],[60267.63131081162,-22073.837799769677],[60601.59216430734,-22279.59982248364],[60891.27201184556,-22300.831698756716],[60961.23927851193,-22997.086612975883],[60575.14230822304,-23410.659639710182],[60836.008207331906,-23839.672017255583],[60538.02423815755,-23410.859000052376],[60273.612734214315,-23449.61243517109],[60157.24553573831,-23382.2175644526],[60071.42466972554,-23527.617706251407],[59997.88134630701,-23545.549061338334]]]}},{"type":"Feature","properties":{},"geometry":{"type":"Polygon","coordinates":[[[61185.00392759913,-63905.33011799668],[60677.12895627758,-63685.32490650392],[60551.938076504295,-63473.29410862801],[60438.73957715147,-63453.08118520213],[60415.43755868475,-63349.33627903128],[60477.55919593057,-63385.597709883215],[60452.48431481346,-63287.70070703953],[60506.312173660175,-63260.000695259165],[60432.06574237404,-63163.06726739631],[60706.41155548891,-63078.29482030526],[60721.35865563883,-63106.74797114847],[60756.08236765855,-63121.179444698],[60896.729601778956,-62956.17553606466],[61035.532690345004,-62935.109793396565],[61060.78075484092,-62994.22013440558],[61152.51118829829,-62916.31454349794],[61692.480827813546,-62977.86151087865],[61731.840508267174,-63134.30400043175],[61630.28805027968,-63218.566971091925],[61683.209091494755,-63302.087878257174],[61627.03783531716,-63302.53090123882],[61541.63477504655,-63486.77308274535],[61690.12753469742,-63769.79831304863],[61185.00392759913,-63905.33011799668]]]}},{"type":"Feature","properties":{},"geometry":{"type":"Polygon","coordinates":[[[51384.99600787982,-19251.039358485563],[51187.00428092275,-19102.216864176746],[51215.044251269544,-19007.553929080204],[51111.97275934735,-18775.65355058306],[51071.98111348177,-18739.857293858448],[50876.669095795,-18830.03462129108],[50763.663367761175,-18676.781897188648],[50749.04218130686,-18526.65248508766],[50948.6132156783,-18503.050435864974],[50993.60761285837,-18425.432809896793],[51149.641247751395,-18509.142001828044],[51497.51236104958,-18400.346633687786],[51546.31743973608,-18455.746657246935],[51637.7530445719,-18390.976697675585],[51810.39458345568,-18458.305114948384],[51863.234474809076,-18518.40118208667],[51779.950089067206,-18761.366059492837],[51823.75240074616,-18877.172266274236],[51536.05733896998,-19125.154378924803],[51540.34690333509,-19191.674279262093],[51384.99600787982,-19251.039358485563]]]}},{"type":"Feature","properties":{},"geometry":{"type":"Polygon","coordinates":[[[50372.44846759333,-62787.461310172286],[50509.68360655274,-62762.54126758558],[50540.06707652919,-62693.69549660695],[50400.74319253571,-62673.43827088145],[50314.06565415538,-62572.373653735514],[50514.39088653429,-62675.02207803179],[50495.6839310247,-62590.51544473491],[50595.097628797834,-62556.302995160244],[50527.707825365585,-62526.54292652722],[50455.773763626465,-62591.45686856653],[50391.07383004357,-62519.94188413839],[50676.55835868233,-62476.891126125316],[50822.93290752993,-62215.96166690721],[50844.757593775044,-61940.75579218372],[51204.2851281788,-61677.456160024274],[51593.482889163584,-61759.54831807782],[51614.26841365086,-61986.708350699744],[51291.176667640495,-62134.5561944602],[51305.11519775581,-62284.56377524206],[51192.690251193424,-62312.418845064596],[51172.68935564025,-62427.482988356176],[51211.5602262289,-62416.540320766675],[51015.38204854333,-62511.98962165462],[50996.287992662736,-62730.477479456116],[50682.946875348774,-62635.05032972447],[50582.320702363904,-62690.62756247502],[50580.51729759037,-62865.03463383928],[50529.063050020624,-62916.79079339346],[50372.44846759333,-62787.461310172286]]]}},{"type":"Feature","properties":{},"geometry":{"type":"Polygon","coordinates":[[[50803.23096022851,-34605.252245036594],[50839.921346896575,-34419.20474489146],[50965.98925488881,-34249.28328119111],[51005.27781553296,-34044.80602510829],[51087.38040904724,-34032.85548024149],[51301.91904861403,-34169.76065640851],[51316.02054368865,-34108.15831114019],[51543.82509596868,-33985.83966656095],[51607.50617242045,-34516.149248321446],[51305.057373760515,-34680.10097737904],[50803.23096022851,-34605.252245036594]]]}},{"type":"Feature","properties":{},"geometry":{"type":"Polygon","coordinates":[[[65583.78530388,-18010.043388622296],[65612.37511525275,-17941.04255959953],[65478.60599064973,-17909.92019531152],[65585.14035551906,-17889.098115281304],[65535.13355675776,-17817.129032301236],[65509.569815243136,-17867.234931257426],[65468.72281015266,-17875.35332735444],[65503.01836492819,-17800.260932366637],[65332.07027434157,-17933.278581899474],[65273.36223613413,-17925.49245303997],[65261.084654342005,-17842.536400172357],[65235.08279044474,-17901.09296245796],[65225.851654874015,-17791.345094919347],[65148.78337172392,-17849.990261803792],[65225.851744449516,-17968.078036924933],[65288.411155348476,-17961.05612270053],[65191.45426601867,-17992.333545041343],[65107.21293726164,-17841.57282519821],[65378.12362800942,-17634.769698464228],[65704.9404186782,-17595.03053721192],[65904.97755747978,-17501.15396789655],[66036.70889653287,-17597.478239159005],[66167.87975628983,-17546.054346834855],[66204.4984349587,-17654.61712790319],[66295.64763482027,-17685.230015767014],[66148.14417838205,-17864.33313071788],[65872.43469678023,-17964.03545221473],[65829.03035166238,-18050.369555300604],[65518.576807920515,-18002.423393380763],[65451.04528815107,-18059.185712603554],[65318.223712893356,-18045.739965187622],[65134.5191843173,-18198.117718913967],[65175.26428123411,-18124.38761958705],[65428.51775124918,-17984.39235812825],[65369.09648023819,-17937.232561986828],[65583.78530388,-18010.043388622296]]]}},{"type":"Feature","properties":{},"geometry":{"type":"Polygon","coordinates":[[[50401.659897405254,-61392.847122574596],[50123.399278301964,-61371.63739744523],[49847.1865661964,-61260.217118160974],[49700.699720500925,-61013.143202624095],[49697.13353924078,-60825.988145030555],[50003.65842414042,-60810.99181717946],[50096.78558271027,-60862.028064390295],[50328.86980563062,-60812.01077002823],[50477.068350488786,-61131.175599867456],[50451.51450021569,-61420.23701826784],[50364.460016853904,-61498.264440493054],[50401.659897405254,-61392.847122574596]]]}},{"type":"Feature","properties":{},"geometry":{"type":"Polygon","coordinates":[[[55017.848760456225,-12461.745427835378],[54904.425638096516,-12270.06046028146],[55094.59153915937,-11929.497620538199],[54965.548813479116,-11750.12869180771],[55023.41169231679,-11754.248805514604],[55041.73134711773,-11679.599433506868],[54968.03488124795,-11656.584389734968],[54952.61903462724,-11624.011125184466],[55045.52162107171,-11666.054005915117],[55107.13398423831,-11560.127211570109],[54991.52030946955,-11549.63864253883],[54832.34892646897,-11345.969903395458],[54829.92392559982,-11223.086404520938],[54954.554779846236,-11137.693725264715],[55171.98633502702,-11180.412216037128],[55263.84969551376,-11416.299801348205],[55370.6193145159,-11267.300097842872],[55347.857327813086,-11439.24839167402],[55177.54956707692,-11445.351033214847],[55252.98836452625,-11593.896638163926],[55108.540129574896,-11800.212439612318],[55145.44445356894,-11990.346826740517],[55321.34601433883,-12233.987314186876],[55017.848760456225,-12461.745427835378]]]}},{"type":"Feature","properties":{},"geometry":{"type":"Polygon","coordinates":[[[62722.015840143096,-19479.395552919832],[62572.575880985554,-19420.10800272335],[62657.31657607056,-19392.972845241016],[62654.4127756659,-19444.418888708482],[62764.6969413909,-19462.715737749666],[62723.98223888738,-19368.540127932025],[62769.58754862225,-19368.828092867163],[62768.038800359114,-19274.91829683623],[62703.451661941464,-19288.962125281494],[62703.14603671326,-19378.46384266843],[62696.6862668855,-19298.143776526897],[62617.844914635534,-19308.732025733996],[62595.42946422975,-19377.26768062708],[62560.74659563714,-19366.280710743074],[62605.77111564137,-19295.8843593348],[62766.47989765049,-19257.009092898523],[62763.68803025324,-18988.59254533381],[62835.94732141126,-18865.498610540915],[62925.81297591538,-18812.756724855888],[63246.15047286263,-18891.71449532669],[63284.073419718545,-19002.503466865655],[63214.75880042779,-19263.599059702123],[63035.21090455254,-19314.491324450897],[62685.98809977014,-19586.164090924965],[62722.015840143096,-19479.395552919832]]]}},{"type":"Feature","properties":{},"geometry":{"type":"Polygon","coordinates":[[[56471.99357751313,-22622.710044446998],[56358.499301390606,-22607.924152515065],[56417.20782167069,-22662.681792752344],[56351.84595913803,-22657.808539981415],[56284.476859999966,-22599.473489187225],[56323.42908916152,-22665.472837522964],[56260.940511108405,-22710.62795468635],[56264.99567722452,-22647.70761605519],[56053.37193143395,-22538.280940179477],[55991.30103792104,-22438.091293418285],[56272.37232669417,-22275.24712180752],[56232.36044435183,-22193.852724941808],[56272.93264170123,-22046.76909582393],[56460.74485269253,-22115.470884330654],[56608.73889933318,-22537.284138464976],[56478.08657723716,-22718.103967457566],[56301.80823032041,-22697.481247774656],[56466.91952761754,-22704.56961544003],[56471.99357751313,-22622.710044446998]]]}},{"type":"Feature","properties":{},"geometry":{"type":"Polygon","coordinates":[[[32685.948647828838,-55868.417024601506],[32542.741264459753,-55842.98750559218],[32506.957239036146,-55702.31663409987],[32525.1447065835,-55348.706767619165],[32593.37071544399,-55247.86366196267],[32682.03600212551,-55234.44006569123],[32815.45168711052,-55362.31864865778],[32793.43312567244,-55614.476252883185],[32926.2578433385,-55819.45190981794],[32725.971319202083,-55947.28619048644],[32685.948647828838,-55868.417024601506]]]}},{"type":"Feature","properties":{},"geometry":{"type":"Polygon","coordinates":[[[65534.16781835477,-62036.138639288765],[65458.42402403641,-62084.99299833095],[65485.52635257194,-62124.06762510155],[65307.394857439605,-62064.41458095041],[65420.12409636189,-61916.69964408213],[65380.42833986852,-61834.04263172465],[65460.30883950381,-61848.518407570264],[65530.31627434285,-61713.750817273845],[65590.1349561452,-61753.03587995849],[65780.17709193946,-61695.44289264546],[65815.81771926301,-61857.91049471752],[65693.27673755398,-62129.77154595169],[65643.24958473966,-62192.891244925835],[65521.17708891395,-62111.44147019101],[65534.16781835477,-62036.138639288765]]]}},{"type":"Feature","properties":{},"geometry":{"type":"Polygon","coordinates":[[[60686.46361229262,-17722.754062298012],[60740.484952621766,-17578.782669607357],[60825.04238348257,-17547.782136631402],[60986.02636642349,-17145.716631789346],[61043.08403353747,-17144.609074338976],[61040.02730116942,-16972.937669873078],[61123.57602294313,-16971.83011242231],[61311.040774275505,-16454.600784117974],[61367.07953749776,-16453.515377818396],[61397.66654817666,-16537.689743878545],[61211.200320915,-17054.91907218288],[61154.14266243669,-17056.026629632466],[61060.39498100625,-17286.387503280468],[60961.573162365,-17345.088048036785],[60773.079211381206,-17720.561098548456],[60686.46361229262,-17722.754062298012]]]}},{"type":"Feature","properties":{},"geometry":{"type":"Polygon","coordinates":[[[31055.217909471197,-54901.153878387224],[31095.016444232373,-54875.945870866955],[31226.842735810107,-55104.61218161734],[31325.503565775467,-55147.452503712426],[31145.57466417876,-55198.798867010766],[31084.216038582745,-55154.02031938097],[31116.566352755628,-55048.91311754923],[30988.02095697723,-55149.6343918858],[30862.82774917492,-55054.61703840803],[30857.86566407971,-54986.192139259474],[30891.020927803285,-55037.04010170469],[30889.370293172844,-54968.32723762021],[30983.904555814977,-54913.226254573165],[31029.54142371918,-54723.23584991215],[31055.217909471197,-54901.153878387224]]]}},{"type":"Feature","properties":{},"geometry":{"type":"Polygon","coordinates":[[[50621.01505102254,-48770.55758884264],[50594.482981280824,-48695.60917632476],[50772.48408097216,-48607.21501638426],[50771.638372572925,-48504.53336536298],[50857.95923806561,-48544.626944986674],[50795.572260994464,-48605.93024974367],[50924.238439143905,-48668.40756539359],[50894.53765221419,-48770.67942015941],[50778.25108779106,-48839.54734228844],[50621.01505102254,-48770.55758884264]]]}},{"type":"Feature","properties":{},"geometry":{"type":"Polygon","coordinates":[[[54259.81512987958,-18795.966154138725],[54180.494317186116,-18757.766497754048],[54250.80805673295,-18588.409888351725],[54201.08607248308,-18527.704664616977],[54243.55353001324,-18553.10095690365],[54272.91801934275,-18556.335024651195],[54216.226813663874,-18509.695780509355],[54497.70613328892,-18634.052330787326],[54739.12242770989,-18372.458337098527],[54258.561944449226,-18973.828804741544],[54255.576564962445,-18893.45336072775],[54457.54139193315,-18644.020347820988],[54371.281940216235,-18630.38631563511],[54347.26665925832,-18693.306654265878],[54299.40925944924,-18656.845863073715],[54259.81512987958,-18795.966154138725]]]}},{"type":"Feature","properties":{},"geometry":{"type":"Polygon","coordinates":[[[66154.56212129114,-15944.836392857173],[66234.27944769753,-15940.627674551037],[66295.47344540071,-15843.251223704963],[66219.53600503718,-15524.872759655564],[66468.2045339411,-15941.41404032985],[66451.95340135322,-15999.937375891623],[66154.56212129114,-15944.836392857173]]]}},{"type":"Feature","properties":{},"geometry":{"type":"Polygon","coordinates":[[[53539.399688069476,-29548.610110753674],[53737.05480041308,-29486.586893652933],[53800.23644681625,-29741.31403115754],[53613.37142512636,-29804.41157898364],[53539.399688069476,-29548.610110753674]]]}},{"type":"Feature","properties":{},"geometry":{"type":"Polygon","coordinates":[[[52661.87786875571,-31335.94201833674],[52534.811533431355,-31206.446401497993],[52578.55264486747,-31133.757406171822],[52403.71035903355,-31056.195158078655],[52710.50960527804,-31032.37159736456],[52661.87786875571,-31335.94201833674]]]}},{"type":"Feature","properties":{},"geometry":{"type":"Polygon","coordinates":[[[63961.9164179248,-17922.092251722068],[63446.50366846115,-18220.855873384364],[63600.63022797649,-17969.429257068663],[63705.02510780738,-17913.929553338025],[63961.9164179248,-17922.092251722068]]]}},{"type":"Feature","properties":{},"geometry":{"type":"Polygon","coordinates":[[[60360.04043826015,-12218.11601584755],[60465.39331027893,-12017.847478064969],[60549.30896822645,-12267.535229179892],[60387.937633178444,-12361.079531257355],[60360.04043826015,-12218.11601584755]]]}},{"type":"Feature","properties":{},"geometry":{"type":"Polygon","coordinates":[[[53065.24307987306,-51085.41910895006],[53005.953592460486,-50962.19226726657],[53072.130726741925,-50802.42710536628],[53253.290154925344,-51008.15590136232],[53174.51948666602,-51123.38617827265],[53065.24307987306,-51085.41910895006]]]}},{"type":"Feature","properties":{},"geometry":{"type":"Polygon","coordinates":[[[59463.79436699201,-7612.9918265230635],[59446.48340272828,-7471.2133975811785],[59273.272391938925,-7432.448886899659],[59244.75368165199,-7362.672767666391],[59442.407784098934,-7300.649550562109],[59654.346895237955,-7836.696279900526],[59463.79436699201,-7612.9918265230635]]]}},{"type":"Feature","properties":{},"geometry":{"type":"Polygon","coordinates":[[[68156.93154274701,-21545.543972285595],[68339.88165222862,-21540.294149972422],[68353.65698336877,-21666.66645480894],[68254.10219479118,-21635.20074771117],[68258.10646561872,-21759.712356034855],[68179.06176784917,-21801.17930689838],[68156.93154274701,-21545.543972285595]]]}},{"type":"Feature","properties":{},"geometry":{"type":"Polygon","coordinates":[[[63467.01571064903,-22270.39602000284],[63636.150527289035,-22180.67279112174],[63661.62258795448,-22065.497892084455],[63859.27596145497,-22004.593308003186],[63806.30424183486,-22176.25363689762],[63636.15054033376,-22208.372802901315],[63637.16945154929,-22264.86930833071],[63525.092160267435,-22311.375645584314],[63467.01571064903,-22270.39602000284]]]}}]}