{
  "type": "FeatureCollection",
  "features": [
    {
      "type": "Feature",
      "properties": {
        "id": "airport/RCQC/strip/0",
        "icao": "RCQC",
        "apt_kind": "strip"
      },
      "geometry": {
        "type": "Polygon",
        "coordinates": [
          [
            [
              10890.761248810217,
              11924.144672794733
            ],
            [
              11073.395721846144,
              11864.910820489284
            ],
            [
              10110.845621888468,
              8897.10063365614
            ],
            [
              9928.21114885254,
              8956.33448596159
            ],
            [
              10890.761248810217,
              11924.144672794733
            ]
          ]
        ]
      }
    },
    {
      "type": "Feature",
      "properties": {
        "id": "airport/RCQC/runway/1",
        "icao": "RCQC",
        "apt_kind": "runway"
      },
      "geometry": {
        "type": "Polygon",
        "coordinates": [
          [
            [
              10942.165050630458,
              11844.394773730543
            ],
            [
              10984.970005248208,
              11830.511839596089
            ],
            [
              10059.441820068227,
              8976.850532720331
            ],
            [
              10016.636865450477,
              8990.733466854785
            ],
            [
              10942.165050630458,
              11844.394773730543
            ]
          ]
        ]
      }
    },
    {
      "type": "Feature",
      "properties": {
        "id": "airport/RCQC/parking/2",
        "icao": "RCQC",
        "apt_kind": "parking"
      },
      "geometry": {
        "type": "Polygon",
        "coordinates": [
          [
            [
              10542.98685876804,
              9419.578151118942
            ],
            [
              10542.98685876804,
              9407.578151118942
            ],
            [
              10530.98685876804,
              9407.578151118942
            ],
            [
              10530.98685876804,
              9419.578151118942
            ],
            [
              10542.98685876804,
              9419.578151118942
            ]
          ]
        ]
      }
    },
    {
      "type": "Feature",
      "properties": {
        "id": "airport/RCQC/parking/3",
        "icao": "RCQC",
        "apt_kind": "parking"
      },
      "geometry": {
        "type": "Polygon",
        "coordinates": [
          [
            [
              10568.731262510293,
              9499.373915113043
            ],
            [
              10568.731262510293,
              9487.373915113043
            ],
            [
              10556.731262510293,
              9487.373915113043
            ],
            [
              10556.731262510293,
              9499.373915113043
            ],
            [
              10568.731262510293,
              9499.373915113043
            ]
          ]
        ]
      }
    },
    {
      "type": "Feature",
      "properties": {
        "id": "airport/RCQC/parking/4",
        "icao": "RCQC",
        "apt_kind": "parking"
      },
      "geometry": {
        "type": "Polygon",
        "coordinates": [
          [
            [
              10581.879697087279,
              9539.112447918393
            ],
            [
              10581.879697087279,
              9527.112447918393
            ],
            [
              10569.879697087279,
              9527.112447918393
            ],
            [
              10569.879697087279,
              9539.112447918393
            ],
            [
              10581.879697087279,
              9539.112447918393
            ]
          ]
        ]
      }
    },
    {
      "type": "Feature",
      "properties": {
        "id": "airport/RCQC/parking/5",
        "icao": "RCQC",
        "apt_kind": "parking"
      },
      "geometry": {
        "type": "Polygon",
        "coordinates": [
          [
            [
              10595.304425310984,
              9581.011786314193
            ],
            [
              10595.304425310984,
              9569.011786314193
            ],
            [
              10583.304425310984,
              9569.011786314193
            ],
            [
              10583.304425310984,
              9581.011786314193
            ],
            [
              10595.304425310984,
              9581.011786314193
            ]
          ]
        ]
      }
    },
    {
      "type": "Feature",
      "properties": {
        "id": "airport/RCQC/parking/6",
        "icao": "RCQC",
        "apt_kind": "parking"
      },
      "geometry": {
        "type": "Polygon",
        "coordinates": [
          [
            [
              10609.294006104115,
              9624.453012003098
            ],
            [
              10609.294006104115,
              9612.453012003098
            ],
            [
              10597.294006104115,
              9612.453012003098
            ],
            [
              10597.294006104115,
              9624.453012003098
            ],
            [
              10609.294006104115,
              9624.453012003098
            ]
          ]
        ]
      }
    },
    {
      "type": "Feature",
      "properties": {
        "id": "airport/RCQC/parking/7",
        "icao": "RCQC",
        "apt_kind": "parking"
      },
      "geometry": {
        "type": "Polygon",
        "coordinates": [
          [
            [
              10623.284861658467,
              9667.584167949855
            ],
            [
              10623.284861658467,
              9655.584167949855
            ],
            [
              10611.284861658467,
              9655.584167949855
            ],
            [
              10611.284861658467,
              9667.584167949855
            ],
            [
              10623.284861658467,
              9667.584167949855
            ]
          ]
        ]
      }
    },
    {
      "type": "Feature",
      "properties": {
        "id": "airport/RCQC/parking/8",
        "icao": "RCQC",
        "apt_kind": "parking"
      },
      "geometry": {
        "type": "Polygon",
        "coordinates": [
          [
            [
              10636.727674161782,
              9707.634151947685
            ],
            [
              10636.727674161782,
              9695.634151947685
            ],
            [
              10624.727674161782,
              9695.634151947685
            ],
            [
              10624.727674161782,
              9707.634151947685
            ],
            [
              10636.727674161782,
              9707.634151947685
            ]
          ]
        ]
      }
    },
    {
      "type": "Feature",
      "properties": {
        "id": "airport/RCQC/parking/9",
        "icao": "RCQC",
        "apt_kind": "parking"
      },
      "geometry": {
        "type": "Polygon",
        "coordinates": [
          [
            [
              10647.63775638648,
              9740.906348558143
            ],
            [
              10647.63775638648,
              9728.906348558143
            ],
            [
              10635.63775638648,
              9728.906348558143
            ],
            [
              10635.63775638648,
              9740.906348558143
            ],
            [
              10647.63775638648,
              9740.906348558143
            ]
          ]
        ]
      }
    },
    {
      "type": "Feature",
      "properties": {
        "id": "airport/RCQC/parking/10",
        "icao": "RCQC",
        "apt_kind": "parking"
      },
      "geometry": {
        "type": "Polygon",
        "coordinates": [
          [
            [
              10658.261944396305,
              9774.177299863193
            ],
            [
              10658.261944396305,
              9762.177299863193
            ],
            [
              10646.261944396305,
              9762.177299863193
            ],
            [
              10646.261944396305,
              9774.177299863193
            ],
            [
              10658.261944396305,
              9774.177299863193
            ]
          ]
        ]
      }
    },
    {
      "type": "Feature",
      "properties": {
        "id": "airport/RCCM/strip/11",
        "icao": "RCCM",
        "apt_kind": "strip"
      },
      "geometry": {
        "type": "Polygon",
        "coordinates": [
          [
            [
              -10784.658980159322,
              -28630.884262848645
            ],
            [
              -10727.873852338642,
              -28650.260775908828
            ],
            [
              -11000.113860840385,
              -29448.09182178974
            ],
            [
              -11056.898988661065,
              -29428.71530872956
            ],
            [
              -10784.658980159322,
              -28630.884262848645
            ]
          ]
        ]
      }
    },
    {
      "type": "Feature",
      "properties": {
        "id": "airport/RCCM/runway/12",
        "icao": "RCCM",
        "apt_kind": "runway"
      },
      "geometry": {
        "type": "Polygon",
        "coordinates": [
          [
            [
              -10776.822838206659,
              -28665.205385308247
            ],
            [
              -10755.055205875426,
              -28672.63304864848
            ],
            [
              -11007.950002793048,
              -29413.77069933014
            ],
            [
              -11029.717635124282,
              -29406.343035989907
            ],
            [
              -10776.822838206659,
              -28665.205385308247
            ]
          ]
        ]
      }
    },
    {
      "type": "Feature",
      "properties": {
        "id": "airport/RCCM/parking/13",
        "icao": "RCCM",
        "apt_kind": "parking"
      },
      "geometry": {
        "type": "Polygon",
        "coordinates": [
          [
            [
              -10864.619908524037,
              -29237.523447687738
            ],
            [
              -10864.619908524037,
              -29249.523447687738
            ],
            [
              -10876.619908524037,
              -29249.523447687738
            ],
            [
              -10876.619908524037,
              -29237.523447687738
            ],
            [
              -10864.619908524037,
              -29237.523447687738
            ]
          ]
        ]
      }
    },
    {
      "type": "Feature",
      "properties": {
        "id": "airport/RCCM/parking/14",
        "icao": "RCCM",
        "apt_kind": "parking"
      },
      "geometry": {
        "type": "Polygon",
        "coordinates": [
          [
            [
              -10873.916882325662,
              -29264.924805702176
            ],
            [
              -10873.916882325662,
              -29276.924805702176
            ],
            [
              -10885.916882325662,
              -29276.924805702176
            ],
            [
              -10885.916882325662,
              -29264.924805702176
            ],
            [
              -10873.916882325662,
              -29264.924805702176
            ]
          ]
        ]
      }
    },
    {
      "type": "Feature",
      "properties": {
        "id": "airport/RCWA/strip/15",
        "icao": "RCWA",
        "apt_kind": "strip"
      },
      "geometry": {
        "type": "Polygon",
        "coordinates": [
          [
            [
              -2018.1188094888348,
              -11275.755920914467
            ],
            [
              -1943.3417256531538,
              -11304.188081103843
            ],
            [
              -2273.8655878543505,
              -12173.471680693794
            ],
            [
              -2348.6426716900314,
              -12145.039520504419
            ],
            [
              -2018.1188094888348,
              -11275.755920914467
            ]
          ]
        ]
      }
    },
    {
      "type": "Feature",
      "properties": {
        "id": "airport/RCWA/runway/16",
        "icao": "RCWA",
        "apt_kind": "runway"
      },
      "geometry": {
        "type": "Polygon",
        "coordinates": [
          [
            [
              -2010.6930061761523,
              -11336.416808854789
            ],
            [
              -1989.194594573346,
              -11344.591054908931
            ],
            [
              -2281.291391167033,
              -12112.810792753473
            ],
            [
              -2302.7898027698393,
              -12104.63654669933
            ],
            [
              -2010.6930061761523,
              -11336.416808854789
            ]
          ]
        ]
      }
    },
    {
      "type": "Feature",
      "properties": {
        "id": "airport/RCWA/parking/17",
        "icao": "RCWA",
        "apt_kind": "parking"
      },
      "geometry": {
        "type": "Polygon",
        "coordinates": [
          [
            [
              -2297.3702502731467,
              -11949.263063559309
            ],
            [
              -2297.3702502731467,
              -11961.263063559309
            ],
            [
              -2309.3702502731467,
              -11961.263063559309
            ],
            [
              -2309.3702502731467,
              -11949.263063559309
            ],
            [
              -2297.3702502731467,
              -11949.263063559309
            ]
          ]
        ]
      }
    },
    {
      "type": "Feature",
      "properties": {
        "id": "airport/RCWA/parking/18",
        "icao": "RCWA",
        "apt_kind": "parking"
      },
      "geometry": {
        "type": "Polygon",
        "coordinates": [
          [
            [
              -2293.4959364749957,
              -11919.71460788278
            ],
            [
              -2293.4959364749957,
              -11931.71460788278
            ],
            [
              -2305.4959364749957,
              -11931.71460788278
            ],
            [
              -2305.4959364749957,
              -11919.71460788278
            ],
            [
              -2293.4959364749957,
              -11919.71460788278
            ]
          ]
        ]
      }
    },
    {
      "type": "Feature",
      "properties": {
        "id": "airport/RCQC/taxiway/19",
        "icao": "RCQC",
        "apt_kind": "taxiway"
      },
      "geometry": {
        "type": "LineString",
        "coordinates": [
          [
            10252.006571049045,
            8630.8310744497
          ],
          [
            10231.305421949946,
            8672.038438896649
          ],
          [
            10137.935404870368,
            8857.897367584519
          ],
          [
            10120.870343877235,
            8891.866770898458
          ],
          [
            10071.931006291357,
            8989.288570260163
          ]
        ]
      }
    },
    {
      "type": "Feature",
      "properties": {
        "id": "airport/RCQC/taxiway/20",
        "icao": "RCQC",
        "apt_kind": "taxiway"
      },
      "geometry": {
        "type": "LineString",
        "coordinates": [
          [
            10567.385623767215,
            9798.404191570356
          ],
          [
            10553.727411067171,
            9786.49427728029
          ],
          [
            10540.576816765592,
            9782.206035880372
          ],
          [
            10525.747297039838,
            9781.310394820292
          ],
          [
            10510.070422969991,
            9782.747827767394
          ]
        ]
      }
    },
    {
      "type": "Feature",
      "properties": {
        "id": "airport/RCQC/taxiway/21",
        "icao": "RCQC",
        "apt_kind": "taxiway"
      },
      "geometry": {
        "type": "LineString",
        "coordinates": [
          [
            10056.021352424636,
            9029.963291159831
          ],
          [
            10056.318921102968,
            9010.849589285906
          ],
          [
            10062.174168552738,
            8997.906551771797
          ],
          [
            10071.931006291357,
            8989.288570260163
          ],
          [
            10085.496657542768,
            8980.509979889262
          ],
          [
            10223.419233994908,
            8939.835500978865
          ],
          [
            10240.002681398531,
            8936.729408773128
          ],
          [
            10253.094937119342,
            8938.204113903455
          ],
          [
            10272.97692852316,
            8946.585887974128
          ],
          [
            10283.823255654308,
            8955.038976828568
          ]
        ]
      }
    },
    {
      "type": "Feature",
      "properties": {
        "id": "airport/RCQC/taxiway/22",
        "icao": "RCQC",
        "apt_kind": "taxiway"
      },
      "geometry": {
        "type": "LineString",
        "coordinates": [
          [
            10670.743062095135,
            10905.382380043622
          ],
          [
            10673.821467707574,
            10892.460579421837
          ],
          [
            10679.497609318641,
            10883.071981165092
          ],
          [
            10685.14165312599,
            10876.341189719737
          ],
          [
            10695.679935586813,
            10870.894451761153
          ]
        ]
      }
    },
    {
      "type": "Feature",
      "properties": {
        "id": "airport/RCQC/taxiway/23",
        "icao": "RCQC",
        "apt_kind": "taxiway"
      },
      "geometry": {
        "type": "LineString",
        "coordinates": [
          [
            10283.823255654308,
            8955.038976828568
          ],
          [
            10548.500108557579,
            9742.360588660464
          ],
          [
            10567.385623767215,
            9798.404191570356
          ],
          [
            10823.066103958816,
            10602.327210082207
          ],
          [
            10883.179614069522,
            10790.46474836208
          ],
          [
            10892.281978539308,
            10818.97815831704
          ],
          [
            10947.68441102258,
            10982.442808923312
          ],
          [
            10988.386276246049,
            11106.615878218785
          ],
          [
            11029.017043317552,
            11230.545138256624
          ],
          [
            11064.862547738187,
            11339.978625069372
          ],
          [
            11111.494996405381,
            11482.141699286178
          ],
          [
            11200.607007474639,
            11753.96872630762
          ]
        ]
      }
    },
    {
      "type": "Feature",
      "properties": {
        "id": "airport/RCQC/taxiway/24",
        "icao": "RCQC",
        "apt_kind": "taxiway"
      },
      "geometry": {
        "type": "LineString",
        "coordinates": [
          [
            10895.285697491257,
            10582.400958640967
          ],
          [
            10823.066103958816,
            10602.327210082207
          ]
        ]
      }
    },
    {
      "type": "Feature",
      "properties": {
        "id": "airport/RCQC/taxiway/25",
        "icao": "RCQC",
        "apt_kind": "taxiway"
      },
      "geometry": {
        "type": "LineString",
        "coordinates": [
          [
            10987.672594380274,
            11365.120366587304
          ],
          [
            11064.862547738187,
            11339.978625069372
          ]
        ]
      }
    },
    {
      "type": "Feature",
      "properties": {
        "id": "airport/RCQC/taxiway/26",
        "icao": "RCQC",
        "apt_kind": "taxiway"
      },
      "geometry": {
        "type": "LineString",
        "coordinates": [
          [
            11287.38190410257,
            11691.659384155646
          ],
          [
            11192.122470260365,
            11715.313286870252
          ]
        ]
      }
    },
    {
      "type": "Feature",
      "properties": {
        "id": "airport/RCQC/taxiway/27",
        "icao": "RCQC",
        "apt_kind": "taxiway"
      },
      "geometry": {
        "type": "LineString",
        "coordinates": [
          [
            11062.930410615983,
            11084.530119996518
          ],
          [
            10988.386276246049,
            11106.615878218785
          ]
        ]
      }
    },
    {
      "type": "Feature",
      "properties": {
        "id": "airport/RCQC/taxiway/28",
        "icao": "RCQC",
        "apt_kind": "taxiway"
      },
      "geometry": {
        "type": "LineString",
        "coordinates": [
          [
            11141.7254406531,
            11310.383770050481
          ],
          [
            11064.862547738187,
            11339.978625069372
          ]
        ]
      }
    },
    {
      "type": "Feature",
      "properties": {
        "id": "airport/RCQC/taxiway/29",
        "icao": "RCQC",
        "apt_kind": "taxiway"
      },
      "geometry": {
        "type": "LineString",
        "coordinates": [
          [
            11221.543486290378,
            11578.88046875177
          ],
          [
            11154.318907459674,
            11601.307896063197
          ]
        ]
      }
    },
    {
      "type": "Feature",
      "properties": {
        "id": "airport/RCQC/taxiway/30",
        "icao": "RCQC",
        "apt_kind": "taxiway"
      },
      "geometry": {
        "type": "LineString",
        "coordinates": [
          [
            11045.05581239902,
            10953.081965119112
          ],
          [
            10947.68441102258,
            10982.442808923312
          ]
        ]
      }
    },
    {
      "type": "Feature",
      "properties": {
        "id": "airport/RCQC/taxiway/31",
        "icao": "RCQC",
        "apt_kind": "taxiway"
      },
      "geometry": {
        "type": "LineString",
        "coordinates": [
          [
            11125.62160850811,
            11201.137173443567
          ],
          [
            11029.017043317552,
            11230.545138256624
          ]
        ]
      }
    },
    {
      "type": "Feature",
      "properties": {
        "id": "airport/RCQC/taxiway/32",
        "icao": "RCQC",
        "apt_kind": "taxiway"
      },
      "geometry": {
        "type": "LineString",
        "coordinates": [
          [
            11201.70925319189,
            11447.866289587691
          ],
          [
            11111.494996405381,
            11482.141699286178
          ]
        ]
      }
    },
    {
      "type": "Feature",
      "properties": {
        "id": "airport/RCQC/apron/33",
        "icao": "RCQC",
        "apt_kind": "apron"
      },
      "geometry": {
        "type": "Polygon",
        "coordinates": [
          [
            [
              10548.105800596008,
              9373.724579256028
            ],
            [
              10674.78916690452,
              9764.377976766787
            ],
            [
              10581.602651690773,
              9794.634714012034
            ],
            [
              10451.7523222022,
              9406.305073884781
            ],
            [
              10470.47856704879,
              9401.015837451909
            ],
            [
              10548.105800596008,
              9373.724579256028
            ]
          ]
        ]
      }
    },
    {
      "type": "Feature",
      "properties": {
        "id": "airport/RCQC/apron/34",
        "icao": "RCQC",
        "apt_kind": "apron"
      },
      "geometry": {
        "type": "Polygon",
        "coordinates": [
          [
            [
              10387.30891624547,
              8888.98741936637
            ],
            [
              10305.077799398976,
              8910.965739322826
            ],
            [
              10124.08490134211,
              8957.819760009646
            ],
            [
              10151.513272983837,
              8883.838190185837
            ],
            [
              10226.98855271883,
              8847.144430858083
            ],
            [
              10266.673861886607,
              8832.87616285123
            ],
            [
              10284.493582796014,
              8827.250474185217
            ],
            [
              10363.644876331964,
              8802.246233732905
            ],
            [
              10387.30891624547,
              8888.98741936637
            ]
          ]
        ]
      }
    },
    {
      "type": "Feature",
      "properties": {
        "id": "airport/RCQC/apron/35",
        "icao": "RCQC",
        "apt_kind": "apron"
      },
      "geometry": {
        "type": "Polygon",
        "coordinates": [
          [
            [
              10320.40076649608,
              8672.936848658137
            ],
            [
              10252.760443888605,
              8703.728282582015
            ],
            [
              10242.868099135347,
              8708.236829999369
            ],
            [
              10220.642501099268,
              8729.1486389637
            ],
            [
              10199.447490009072,
              8722.112339158542
            ],
            [
              10203.7563535808,
              8689.239162313286
            ],
            [
              10200.572708761843,
              8637.329067390412
            ],
            [
              10215.061845742515,
              8606.515893058851
            ],
            [
              10240.843584763468,
              8556.836352320854
            ],
            [
              10337.21626107773,
              8605.122176900506
            ],
            [
              10341.511226531526,
              8629.239575966261
            ],
            [
              10320.40076649608,
              8672.936848658137
            ]
          ]
        ]
      }
    },
    {
      "type": "Feature",
      "properties": {
        "id": "airport/RCQC/taxiway/36",
        "icao": "RCQC",
        "apt_kind": "taxiway"
      },
      "geometry": {
        "type": "LineString",
        "coordinates": [
          [
            11200.607007474639,
            11753.96872630762
          ],
          [
            11202.789160356973,
            11765.983483648393
          ],
          [
            11200.177963645314,
            11779.36133263586
          ],
          [
            11189.445811135287,
            11796.40215260582
          ],
          [
            11179.368533674045,
            11806.180816688575
          ],
          [
            11106.679386360513,
            11829.669541906565
          ],
          [
            11087.474652373523,
            11833.00661710091
          ],
          [
            11069.96296764107,
            11829.739558151923
          ],
          [
            11052.682009052427,
            11825.07811722951
          ],
          [
            10945.633508355997,
            11777.28224994149
          ]
        ]
      }
    },
    {
      "type": "Feature",
      "properties": {
        "id": "airport/RCWA/apron/38",
        "icao": "RCWA",
        "apt_kind": "apron"
      },
      "geometry": {
        "type": "Polygon",
        "coordinates": [
          [
            [
              -2332.546707288362,
              -11964.65571927512
            ],
            [
              -2318.1329867187887,
              -11970.054171588738
            ],
            [
              -2276.4990199733875,
              -11985.634876672644
            ],
            [
              -2240.697520277812,
              -11891.058167995885
            ],
            [
              -2296.73468250531,
              -11870.0791143924
            ],
            [
              -2332.546707288362,
              -11964.65571927512
            ]
          ]
        ]
      }
    },
    {
      "type": "Feature",
      "properties": {
        "id": "airport/RCCM/apron/41",
        "icao": "RCCM",
        "apt_kind": "apron"
      },
      "geometry": {
        "type": "Polygon",
        "coordinates": [
          [
            [
              -10878.978632300277,
              -29162.863133131992
            ],
            [
              -10918.750646822155,
              -29281.52329454804
            ],
            [
              -10879.321159246785,
              -29296.581285394263
            ],
            [
              -10857.524295762996,
              -29227.262566392776
            ],
            [
              -10875.269513645908,
              -29221.21185520105
            ],
            [
              -10857.646116819291,
              -29170.642136190087
            ],
            [
              -10878.978632300277,
              -29162.863133131992
            ]
          ]
        ]
      }
    },
    {
      "type": "Feature",
      "properties": {
        "id": "airport/RCCM/taxiway/42",
        "icao": "RCCM",
        "apt_kind": "taxiway"
      },
      "geometry": {
        "type": "LineString",
        "coordinates": [
          [
            -10933.1869918835,
            -29162.321133128367
          ],
          [
            -10933.461512376613,
            -29173.661579741165
          ],
          [
            -10931.89871956309,
            -29179.670214957558
          ],
          [
            -10929.318142210832,
            -29183.671555895824
          ],
          [
            -10925.680810975202,
            -29188.544700425584
          ],
          [
            -10919.230438036844,
            -29192.822853596415
          ],
          [
            -10907.786285335314,
            -29196.710154308006
          ],
          [
            -10899.052181735344,
            -29197.847831859253
          ],
          [
            -10891.504431506095,
            -29195.75533732446
          ],
          [
            -10884.251226764929,
            -29190.89521361096
          ]
        ]
      }
    },
    {
      "type": "Feature",
      "properties": {
        "id": "airport/RCCM/taxiway/43",
        "icao": "RCCM",
        "apt_kind": "taxiway"
      },
      "geometry": {
        "type": "LineString",
        "coordinates": [
          [
            -10948.238491341064,
            -29206.81489236094
          ],
          [
            -10943.517369625159,
            -29200.577825565357
          ],
          [
            -10939.35134898196,
            -29197.07759946352
          ],
          [
            -10932.582593513653,
            -29194.599774900824
          ],
          [
            -10926.875203021627,
            -29193.210234115366
          ],
          [
            -10919.230438036844,
            -29192.822853596415
          ],
          [
            -10907.786285335314,
            -29196.710154308006
          ],
          [
            -10900.723149120051,
            -29200.510363081936
          ],
          [
            -10895.959055113257,
            -29205.679259619676
          ],
          [
            -10893.002770152118,
            -29212.19328738423
          ],
          [
            -10891.949060835235,
            -29215.567795949988
          ]
        ]
      }
    },
    {
      "type": "Feature",
      "properties": {
        "id": "airport/RCCM/taxiway/44",
        "icao": "RCCM",
        "apt_kind": "taxiway"
      },
      "geometry": {
        "type": "LineString",
        "coordinates": [
          [
            -10915.576208444312,
            -29257.06304515386
          ],
          [
            -10907.122652211343,
            -29260.294497587718
          ]
        ]
      }
    },
    {
      "type": "Feature",
      "properties": {
        "id": "airport/RCQC/taxiway/46",
        "icao": "RCQC",
        "apt_kind": "taxiway"
      },
      "geometry": {
        "type": "LineString",
        "coordinates": [
          [
            10695.679935586813,
            10870.894451761153
          ],
          [
            10858.639530936955,
            10818.176355673466
          ]
        ]
      }
    },
    {
      "type": "Feature",
      "properties": {
        "id": "airport/RCQC/taxiway/47",
        "icao": "RCQC",
        "apt_kind": "taxiway"
      },
      "geometry": {
        "type": "LineString",
        "coordinates": [
          [
            10858.639530936955,
            10818.176355673466
          ],
          [
            10870.542365956993,
            10815.825621338561
          ],
          [
            10882.073906701582,
            10816.651719937567
          ],
          [
            10892.281978539308,
            10818.97815831704
          ]
        ]
      }
    },
    {
      "type": "Feature",
      "properties": {
        "id": "airport/RCQC/taxiway/48",
        "icao": "RCQC",
        "apt_kind": "taxiway"
      },
      "geometry": {
        "type": "LineString",
        "coordinates": [
          [
            10695.679935586813,
            10870.894451761153
          ],
          [
            10685.1562360471,
            10870.70419366518
          ],
          [
            10676.405026657332,
            10869.037717481144
          ],
          [
            10666.0199857619,
            10865.171257970389
          ],
          [
            10655.412571917346,
            10858.479761202354
          ]
        ]
      }
    },
    {
      "type": "Feature",
      "properties": {
        "id": "airport/RCQC/taxiway/49",
        "icao": "RCQC",
        "apt_kind": "taxiway"
      },
      "geometry": {
        "type": "LineString",
        "coordinates": [
          [
            10858.639530936955,
            10818.176355673466
          ],
          [
            10871.61170939944,
            10809.451265827753
          ],
          [
            10877.122190808237,
            10802.941452288069
          ],
          [
            10880.430155058159,
            10795.879260913003
          ],
          [
            10883.179614069522,
            10790.46474836208
          ]
        ]
      }
    },
    {
      "type": "Feature",
      "properties": {
        "id": "airport/RCQC/taxiway/50",
        "icao": "RCQC",
        "apt_kind": "taxiway"
      },
      "geometry": {
        "type": "LineString",
        "coordinates": [
          [
            10510.070422969991,
            9782.747827767394
          ],
          [
            10354.748969501117,
            9832.723664656281
          ]
        ]
      }
    },
    {
      "type": "Feature",
      "properties": {
        "id": "airport/RCQC/taxiway/51",
        "icao": "RCQC",
        "apt_kind": "taxiway"
      },
      "geometry": {
        "type": "LineString",
        "coordinates": [
          [
            10354.748969501117,
            9832.723664656281
          ],
          [
            10345.277145981672,
            9839.282797342632
          ],
          [
            10338.466240336944,
            9846.66202703584
          ],
          [
            10334.243910283258,
            9857.397152496036
          ],
          [
            10331.75364876067,
            9871.251857291907
          ]
        ]
      }
    },
    {
      "type": "Feature",
      "properties": {
        "id": "airport/RCQC/taxiway/52",
        "icao": "RCQC",
        "apt_kind": "taxiway"
      },
      "geometry": {
        "type": "LineString",
        "coordinates": [
          [
            10354.748969501117,
            9832.723664656281
          ],
          [
            10343.055368680449,
            9833.757854846772
          ],
          [
            10332.659916041826,
            9832.08441496035
          ],
          [
            10325.561170063214,
            9828.24366683187
          ],
          [
            10315.81708738167,
            9822.353605508804
          ]
        ]
      }
    },
    {
      "type": "Feature",
      "properties": {
        "id": "airport/RCQC/taxiway/53",
        "icao": "RCQC",
        "apt_kind": "taxiway"
      },
      "geometry": {
        "type": "LineString",
        "coordinates": [
          [
            10510.070422969991,
            9782.747827767394
          ],
          [
            10530.076013924321,
            9771.960132258013
          ],
          [
            10538.873263203306,
            9763.282879064325
          ],
          [
            10543.288625532354,
            9755.1290739947
          ],
          [
            10548.500108557579,
            9742.360588660464
          ]
        ]
      }
    },
    {
      "type": "Feature",
      "properties": {
        "id": "airport/RCQC/taxiway/54",
        "icao": "RCQC",
        "apt_kind": "taxiway"
      },
      "geometry": {
        "type": "LineString",
        "coordinates": [
          [
            10283.823255654308,
            8955.038976828568
          ],
          [
            10269.243649814161,
            8903.72141731577
          ],
          [
            10261.642201732611,
            8876.942736091092
          ],
          [
            10257.683005324798,
            8869.450004657265
          ],
          [
            10248.56226868846,
            8863.274790589698
          ],
          [
            10236.519362185732,
            8859.955188826192
          ],
          [
            10225.016606190882,
            8861.532988161314
          ],
          [
            10165.039970849699,
            8879.345424409024
          ],
          [
            10120.870343877235,
            8891.866770898458
          ]
        ]
      }
    },
    {
      "type": "Feature",
      "properties": {
        "id": "airport/RCQC/taxiway/55",
        "icao": "RCQC",
        "apt_kind": "taxiway"
      },
      "geometry": {
        "type": "LineString",
        "coordinates": [
          [
            10165.039970849699,
            8879.345424409024
          ],
          [
            10150.448994710867,
            8879.724824797828
          ],
          [
            10142.80320975749,
            8874.785400777124
          ],
          [
            10139.54187916778,
            8868.790833173785
          ],
          [
            10137.935404870368,
            8857.897367584519
          ]
        ]
      }
    },
    {
      "type": "Feature",
      "properties": {
        "id": "airport/RCQC/taxiway/56",
        "icao": "RCQC",
        "apt_kind": "taxiway"
      },
      "geometry": {
        "type": "LineString",
        "coordinates": [
          [
            10240.002681398531,
            8936.729408773128
          ],
          [
            10257.043734890234,
            8927.024787350558
          ],
          [
            10264.199990337307,
            8917.797543062363
          ],
          [
            10269.243649814161,
            8903.72141731577
          ]
        ]
      }
    },
    {
      "type": "Feature",
      "properties": {
        "id": "airport/RCQC/apron/57",
        "icao": "RCQC",
        "apt_kind": "apron"
      },
      "geometry": {
        "type": "Polygon",
        "coordinates": [
          [
            [
              10736.169761040015,
              10252.834565036464
            ],
            [
              10822.817819696793,
              10225.451646567788
            ],
            [
              10677.499971044075,
              9770.104467426892
            ],
            [
              10584.273380395025,
              9800.194889495615
            ],
            [
              10736.169761040015,
              10252.834565036464
            ]
          ]
        ]
      }
    }
  ]
}
