{
  "type": "FeatureCollection",
  "features": [
    {
      "type": "Feature",
      "properties": {
        "id": "taiwan"
      },
      "geometry": {
        "type": "Polygon",
        "coordinates": [
          [
            [
              67119.41277465655,
              36491.32369118743
            ],
            [
              66876.98662543943,
              36544.01043213904
            ],
            [
              66812.44422967127,
              36248.641858743504
            ],
            [
              65873.07446530892,
              36450.50169903273
            ],
            [
              65997.29663361586,
              36602.95887416508
            ],
            [
              66072.69741622888,
              36904.47202759981
            ],
            [
              65627.59612992656,
              37000.06492678728
            ],
            [
              65654.72865717014,
              37110.94549705647
            ],
            [
              66085.2922613112,
              37021.679921223316
            ],
            [
              66263.8286100459,
              36984.667076083366
            ],
            [
              66331.24260578142,
              37023.141917746514
            ],
            [
              66490.91786675632,
              37004.20780656906
            ],
            [
              68744.71866998903,
              38546.71777003119
            ],
            [
              68935.18369514367,
              38810.688277168665
            ],
            [
              70082.13774679223,
              38686.57412770251
            ],
            [
              71052.44564302161,
              38484.017721791286
            ],
            [
              71097.48014398548,
              38581.82843845477
            ],
            [
              71073.83895371202,
              38755.31171177747
            ],
            [
              70878.28377338703,
              38807.260385892354
            ],
            [
              71051.72352097405,
              39251.5808764752
            ],
            [
              70717.88837352651,
              39471.25179899298
            ],
            [
              70914.15569443593,
              40103.83309183223
            ],
            [
              72272.53211979399,
              39479.29944445798
            ],
            [
              72568.72946609784,
              39520.996818489395
            ],
            [
              72784.47511791799,
              38860.36335640447
            ],
            [
              73042.21682817844,
              38868.16989983292
            ],
            [
              73093.4455944529,
              39069.092052500695
            ],
            [
              73100.79384463059,
              38812.17929033283
            ],
            [
              73243.6745189192,
              38787.955668665
            ],
            [
              73321.65376901207,
              39075.53710486088
            ],
            [
              73551.63153666107,
              38996.70766588207
            ],
            [
              73614.50511714187,
              38798.98104284797
            ],
            [
              73541.23276335985,
              39366.569220921025
            ],
            [
              73675.23312377249,
              39655.76530121174
            ],
            [
              73506.37487695139,
              39622.16573559772
            ],
            [
              73374.39271383907,
              39218.88399581704
            ],
            [
              73368.58474693913,
              39418.23177459743
            ],
            [
              73580.78933440446,
              39966.20021410426
            ],
            [
              75075.50697913242,
              39524.169486678205
            ],
            [
              76000.11572967592,
              39754.35694415448
            ],
            [
              76155.50584139157,
              39951.453436455224
            ],
            [
              76163.82990327128,
              40818.91952488059
            ],
            [
              76029.12863514404,
              40886.8755538906
            ],
            [
              75016.43225910875,
              41329.456402982585
            ],
            [
              74385.12650912866,
              41789.40674212854
            ],
            [
              74359.0075960554,
              42182.95756476885
            ],
            [
              73911.23080723075,
              42355.131045503076
            ],
            [
              73990.08445887605,
              42656.030490756035
            ],
            [
              73715.8477497737,
              42790.96413443796
            ],
            [
              73856.70584978542,
              43337.1826377376
            ],
            [
              74952.12392532278,
              42827.00830820203
            ],
            [
              74650.78199395514,
              43129.08161769202
            ],
            [
              74740.51301440835,
              43295.21824613726
            ],
            [
              74920.52315677534,
              43162.9200487989
            ],
            [
              74958.46973548143,
              43221.446878928225
            ],
            [
              75033.54215252696,
              43632.527366723865
            ],
            [
              75210.69049864868,
              43574.1367233349
            ],
            [
              75363.87096446258,
              43860.689480197616
            ],
            [
              75700.21621889569,
              43719.01094725123
            ],
            [
              75631.80569101596,
              43171.480705338065
            ],
            [
              76003.11561442958,
              43784.47212961875
            ],
            [
              76229.36803855223,
              43692.28440524172
            ],
            [
              76749.47110412206,
              44238.54627867974
            ],
            [
              77581.15023218718,
              44763.67970304703
            ],
            [
              77619.4026434347,
              45478.26246743789
            ],
            [
              78199.02842492727,
              46276.81607567659
            ],
            [
              78430.00467992207,
              47081.22404422145
            ],
            [
              79258.75480080268,
              48306.315802902915
            ],
            [
              79772.68908302276,
              49640.85708631296
            ],
            [
              80120.8259665246,
              50546.14395272685
            ],
            [
              80074.32972474827,
              50881.493781496305
            ],
            [
              80140.33311952755,
              51628.70100273052
            ],
            [
              79266.21959606116,
              51806.46188975591
            ],
            [
              79157.70563955314,
              52075.085514489096
            ],
            [
              80627.99013813096,
              54519.890686889645
            ],
            [
              81084.89767079998,
              55034.41796067543
            ],
            [
              81037.52420356765,
              55617.82032927219
            ],
            [
              81415.51303043275,
              56552.12933378015
            ],
            [
              81781.85523010674,
              57518.93275570823
            ],
            [
              83170.7593465866,
              57616.64108050894
            ],
            [
              83379.89226908784,
              57461.07897192333
            ],
            [
              83859.07648886275,
              57846.34334395733
            ],
            [
              83846.2625956054,
              57871.84339968674
            ],
            [
              83451.50349702255,
              57902.836241267156
            ],
            [
              83670.86023523391,
              58980.046866971534
            ],
            [
              84613.2750892071,
              60978.91368365055
            ],
            [
              85650.38732307614,
              62358.03186172899
            ],
            [
              85813.89628339093,
              62994.28027946269
            ],
            [
              85882.71576446033,
              63128.61798415845
            ],
            [
              86184.83504783781,
              63046.04600398149
            ],
            [
              86231.29161895055,
              63300.76190087246
            ],
            [
              86740.47966101556,
              63658.75083039561
            ],
            [
              86295.59567983536,
              63953.186337622814
            ],
            [
              86886.90392840252,
              63655.09297561459
            ],
            [
              88717.55532216711,
              64734.14851604495
            ],
            [
              89059.08905653708,
              64539.820300226565
            ],
            [
              89487.47156768391,
              65072.973567989655
            ],
            [
              89499.5038617053,
              65727.23715972295
            ],
            [
              89846.08543479547,
              66655.83034876594
            ],
            [
              90302.42558779346,
              66962.7574646417
            ],
            [
              90727.93430516822,
              67960.08412340702
            ],
            [
              91114.85680419533,
              68189.17924120976
            ],
            [
              91492.58879642095,
              68078.6536659114
            ],
            [
              91740.52025236178,
              68459.13501248974
            ],
            [
              92229.12544085085,
              68715.32148088515
            ],
            [
              92289.32948588725,
              69154.29573648237
            ],
            [
              92079.37378977204,
              69334.16695997026
            ],
            [
              91890.32834100793,
              69430.69046126772
            ],
            [
              92485.5784111151,
              72166.09817976318
            ],
            [
              92643.51361741358,
              72519.88986469246
            ],
            [
              92660.55784734263,
              72676.0155809191
            ],
            [
              92516.94886726094,
              72673.35622973228
            ],
            [
              92708.55042466486,
              73636.70798615925
            ],
            [
              94660.21383436641,
              76321.78369476972
            ],
            [
              94472.08730281895,
              76316.2010185062
            ],
            [
              92572.27927108482,
              73706.54249002691
            ],
            [
              92368.90991107514,
              72660.48296346935
            ],
            [
              90578.05350436107,
              72609.43958222913
            ],
            [
              90480.78050931077,
              72183.32555003185
            ],
            [
              89933.56740634074,
              70205.00783136673
            ],
            [
              89560.07128531602,
              69813.50387114193
            ],
            [
              88728.41148373293,
              69668.71800703276
            ],
            [
              88360.25947091193,
              68983.9301304468
            ],
            [
              87209.19070304529,
              68948.92538165441
            ],
            [
              86657.87795330992,
              69022.77998426557
            ],
            [
              86347.4678777944,
              69208.0583625962
            ],
            [
              86639.39888858481,
              69145.93052027607
            ],
            [
              86849.01401603897,
              69509.78112838231
            ],
            [
              88309.10391553468,
              71672.97916689143
            ],
            [
              88322.44308260654,
              71671.06255568704
            ],
            [
              88336.51545936888,
              71674.13844538899
            ],
            [
              88379.38494270993,
              71704.63174942229
            ],
            [
              88917.7638513972,
              72459.41493425937
            ],
            [
              89101.84222567303,
              72705.37789900647
            ],
            [
              90062.87762024021,
              72686.27987408498
            ],
            [
              90333.68437457667,
              72910.74607790587
            ],
            [
              90357.50328209205,
              73231.86985786445
            ],
            [
              89762.87361269147,
              73656.36171896337
            ],
            [
              90255.377286579,
              73338.4080782691
            ],
            [
              90525.31472844759,
              73542.72987205628
            ],
            [
              91053.47046428558,
              74568.06957366131
            ],
            [
              90598.36584413529,
              74844.0321397055
            ],
            [
              91584.3575422747,
              76273.04490654403
            ],
            [
              92613.76922903885,
              76387.60674757836
            ],
            [
              94684.32070512295,
              76433.35234702844
            ],
            [
              95063.67526500631,
              76636.64984505344
            ],
            [
              95325.20899839909,
              77146.77500900207
            ],
            [
              95332.63473955827,
              76978.36952101905
            ],
            [
              95495.64058559336,
              77174.48531673243
            ],
            [
              94956.89706649235,
              77450.56263397262
            ],
            [
              95643.38904873398,
              78457.16731552081
            ],
            [
              95448.72771455394,
              78679.93138458207
            ],
            [
              95798.34823557187,
              79312.84837919893
            ],
            [
              95972.43785808649,
              79221.29858095385
            ],
            [
              96191.10294650245,
              79547.22184484918
            ],
            [
              96479.67698055774,
              79273.92168708192
            ],
            [
              97172.56131599261,
              80603.29499158356
            ],
            [
              97246.25501943851,
              80732.55799818318
            ],
            [
              97585.04897192842,
              81326.61585718859
            ],
            [
              97653.78080272395,
              81603.1985104233
            ],
            [
              95516.384806382,
              82359.22998250974
            ],
            [
              95169.92930458777,
              82550.57671797788
            ],
            [
              94753.88245867402,
              82693.56510639843
            ],
            [
              95889.41838975355,
              85500.79265133198
            ],
            [
              96952.40492553322,
              85103.34181940742
            ],
            [
              96959.67938334681,
              85100.40568579733
            ],
            [
              97028.79318313254,
              85277.84694132116
            ],
            [
              97404.38170929963,
              86266.0537865404
            ],
            [
              97594.90003079729,
              86767.98568552872
            ],
            [
              97566.8689383546,
              87190.94241375709
            ],
            [
              97582.65431595861,
              87235.57038327586
            ],
            [
              98136.57749300887,
              88738.81886062585
            ],
            [
              98700.9479045478,
              88490.31175100058
            ],
            [
              99391.66070308321,
              90023.85734942788
            ],
            [
              99235.02773161791,
              90152.1419109269
            ],
            [
              99334.79135730019,
              90366.4354843609
            ],
            [
              98905.66046819102,
              90558.75052449899
            ],
            [
              98691.18607094744,
              91002.69847211894
            ],
            [
              98935.97360955144,
              90570.95421390096
            ],
            [
              99376.83377984806,
              90353.30750801275
            ],
            [
              99747.70300953084,
              90230.61480672238
            ],
            [
              99866.96193422121,
              90457.49940799177
            ],
            [
              99841.32190505893,
              90158.8414808535
            ],
            [
              99133.2726496188,
              87970.6834453661
            ],
            [
              98856.29739458347,
              87780.83996463241
            ],
            [
              98377.58495375776,
              86530.17018471146
            ],
            [
              97740.04220360913,
              86769.99051707378
            ],
            [
              96566.07808364864,
              83506.39428553218
            ],
            [
              97080.9374461011,
              83317.84514388721
            ],
            [
              97881.50908633624,
              85338.59890750656
            ],
            [
              98502.65761759854,
              85171.84746667463
            ],
            [
              99043.05998905114,
              84453.1775323744
            ],
            [
              99030.59780799545,
              84992.40763830673
            ],
            [
              98805.68514041638,
              85390.1890795622
            ],
            [
              100000.00000000105,
              88575.44259779109
            ],
            [
              99999.99999999919,
              -100000.0
            ],
            [
              81697.49279054801,
              -100000.00000000047
            ],
            [
              82055.41100420675,
              -99712.49410620192
            ],
            [
              81691.03617642826,
              -99748.83797718165
            ],
            [
              81569.92066066858,
              -99334.75744237751
            ],
            [
              81152.64418797533,
              -99710.812006135
            ],
            [
              80344.63766137237,
              -98709.00011874177
            ],
            [
              80071.69865196594,
              -98206.78878123313
            ],
            [
              80767.88861732965,
              -97893.84377733106
            ],
            [
              80692.13946664368,
              -97797.42963187769
            ],
            [
              79803.6843284712,
              -98149.28124644607
            ],
            [
              78376.98026906827,
              -95687.33131753374
            ],
            [
              78178.46611745557,
              -95310.16841117945
            ],
            [
              78337.81708589883,
              -95209.30489299214
            ],
            [
              79202.41111546394,
              -95626.85755245527
            ],
            [
              79575.71586403926,
              -96620.74061359698
            ],
            [
              79848.60259193782,
              -96781.53236315819
            ],
            [
              80062.92183943279,
              -97386.40798928123
            ],
            [
              80229.53318013472,
              -97324.23796764016
            ],
            [
              80187.91102386639,
              -97220.43527231738
            ],
            [
              80129.74842537148,
              -97064.33384099137
            ],
            [
              79975.96925787593,
              -96691.65190381696
            ],
            [
              80377.2870619056,
              -96541.4965442731
            ],
            [
              80792.97789882508,
              -96370.62561045401
            ],
            [
              81129.80012916459,
              -96248.4051843998
            ],
            [
              81076.5222360352,
              -96214.7494856189
            ],
            [
              80780.40737213544,
              -96326.82095977804
            ],
            [
              80351.04619814985,
              -96466.63326737424
            ],
            [
              79960.72154095984,
              -96612.99300025403
            ],
            [
              79818.68143251783,
              -96229.37553882133
            ],
            [
              79713.71147637186,
              -95977.16760098981
            ],
            [
              79709.20703840593,
              -95783.32849047845
            ],
            [
              79708.71105321171,
              -95759.42059211154
            ],
            [
              79702.07825069863,
              -95625.88444758626
            ],
            [
              79693.3760978696,
              -95499.15563729918
            ],
            [
              79662.96328435122,
              -95341.3493042984
            ],
            [
              78981.70143905096,
              -95076.88477535453
            ],
            [
              79068.17692833405,
              -94910.27907185862
            ],
            [
              79131.46275131463,
              -94783.97846854804
            ],
            [
              79267.07507835899,
              -94500.03138216212
            ],
            [
              79104.81771305564,
              -94279.49489160907
            ],
            [
              78984.63324469177,
              -94331.26241431013
            ],
            [
              78844.6864319371,
              -94617.33761581639
            ],
            [
              78604.20842900418,
              -94500.73014123598
            ],
            [
              78029.7599013265,
              -94247.57520926278
            ],
            [
              77924.43794472126,
              -94290.62287947629
            ],
            [
              78851.9314642601,
              -94745.23105893191
            ],
            [
              78764.8164717672,
              -94921.26632724982
            ],
            [
              78046.91063866403,
              -94551.28529129922
            ],
            [
              77758.39250965649,
              -94412.10730972979
            ],
            [
              77576.61435717449,
              -94325.01739371242
            ],
            [
              77341.73878673848,
              -94380.75545087736
            ],
            [
              77055.61917054665,
              -94450.3174939393
            ],
            [
              77266.89484353148,
              -94309.94727565302
            ],
            [
              77195.94396825315,
              -94318.02959306072
            ],
            [
              76988.77399249433,
              -94343.11211556802
            ],
            [
              76997.54319457005,
              -94426.0924897939
            ],
            [
              76948.96664545772,
              -94426.9941082783
            ],
            [
              76863.92101738049,
              -93798.43139826646
            ],
            [
              76875.78499002266,
              -93994.8761188495
            ],
            [
              76856.7260611814,
              -94017.0677338955
            ],
            [
              76888.4765043467,
              -94393.34189305548
            ],
            [
              76582.00424883445,
              -94571.49737718748
            ],
            [
              76535.8811962509,
              -94230.85326262284
            ],
            [
              76474.75109669141,
              -94035.76871582773
            ],
            [
              76006.57608658436,
              -93910.588957923
            ],
            [
              75561.77305866225,
              -94126.94206950674
            ],
            [
              76098.40930543648,
              -93850.47978846682
            ],
            [
              76142.23409976525,
              -93297.80763724074
            ],
            [
              76066.32750003075,
              -93141.56691302173
            ],
            [
              75857.30602254876,
              -92797.79318124568
            ],
            [
              75809.53871954512,
              -92687.11032748967
            ],
            [
              75482.01319017797,
              -92427.73236772325
            ],
            [
              75037.20067416667,
              -91460.17367943982
            ],
            [
              75007.96335705364,
              -91132.6414699452
            ],
            [
              74858.21526831714,
              -90710.82917191368
            ],
            [
              74923.58273958432,
              -89351.66278454475
            ],
            [
              75598.78965980833,
              -88819.03830957413
            ],
            [
              75600.85663996357,
              -88839.8095619306
            ],
            [
              75900.6366492727,
              -88734.99905053712
            ],
            [
              76239.69909615465,
              -88181.98662007088
            ],
            [
              76214.91251187271,
              -86775.94506520685
            ],
            [
              76027.3574142023,
              -86542.93713948969
            ],
            [
              75691.75725907553,
              -86453.97969841817
            ],
            [
              75477.05024218652,
              -86357.9343510014
            ],
            [
              75441.16895419918,
              -86320.93549377704
            ],
            [
              75737.21920422418,
              -86456.00881275069
            ],
            [
              75949.5449256638,
              -86368.07263075653
            ],
            [
              75884.14581187628,
              -86235.26707868278
            ],
            [
              76340.89408044727,
              -86456.59395696362
            ],
            [
              76395.58211422263,
              -86478.78868569015
            ],
            [
              76413.96698931139,
              -86485.94189882092
            ],
            [
              76662.01943207998,
              -87497.97262488771
            ],
            [
              76670.26499856863,
              -87517.57247155858
            ],
            [
              76910.53393508418,
              -87562.8015461131
            ],
            [
              77109.19832971517,
              -87322.21206004592
            ],
            [
              77009.9307908513,
              -87180.96206434583
            ],
            [
              77116.23883876967,
              -87311.4527339167
            ],
            [
              77139.56180653948,
              -87295.01612858381
            ],
            [
              77053.55569928815,
              -87150.58484748285
            ],
            [
              77151.794182404,
              -87291.65510780364
            ],
            [
              77364.04540537146,
              -87135.76240295405
            ],
            [
              77026.28731535602,
              -86676.11817047745
            ],
            [
              77275.65022181894,
              -86389.49300807295
            ],
            [
              77236.09521652793,
              -85940.3173482283
            ],
            [
              77015.23625221464,
              -85926.79304628354
            ],
            [
              77023.70878300897,
              -85750.93946173554
            ],
            [
              77027.39769929036,
              -85750.89679055382
            ],
            [
              77069.58813186781,
              -85750.30277813086
            ],
            [
              77069.73651242757,
              -85825.19480764074
            ],
            [
              77349.61561215762,
              -85824.68827537587
            ],
            [
              77349.01880589954,
              -85555.31200435385
            ],
            [
              77025.56516922027,
              -85630.53164595552
            ],
            [
              77022.6282116446,
              -85630.77831433527
            ],
            [
              76993.53996400558,
              -85282.11233858997
            ],
            [
              76993.86567601067,
              -85258.9504331653
            ],
            [
              77343.74015171482,
              -85262.51766857458
            ],
            [
              77347.13331162359,
              -84814.08036605595
            ],
            [
              77350.64569471579,
              -84605.70634153252
            ],
            [
              77129.52862910787,
              -84511.94404364796
            ],
            [
              77108.89301854582,
              -84503.32695950009
            ],
            [
              77000.0476673966,
              -84455.97020377219
            ],
            [
              76997.85094814375,
              -84455.03652161639
            ],
            [
              76692.97020338097,
              -84325.02629290707
            ],
            [
              76255.94930756406,
              -84478.07714898977
            ],
            [
              76376.7967804384,
              -84628.17369969562
            ],
            [
              76561.97746072512,
              -84584.97145768208
            ],
            [
              76551.33442578214,
              -84587.68725407403
            ],
            [
              76452.73323633446,
              -84801.44619797496
            ],
            [
              76202.37816039071,
              -84803.41379792569
            ],
            [
              76219.1751675221,
              -85618.83260138985
            ],
            [
              76422.41810396669,
              -85714.75457370421
            ],
            [
              76231.68230925471,
              -85651.50984659651
            ],
            [
              75888.86391368497,
              -85933.96069908654
            ],
            [
              75290.7785990435,
              -85556.16732830508
            ],
            [
              75934.37650029233,
              -85046.89730297681
            ],
            [
              75499.60940351844,
              -83841.099938381
            ],
            [
              75404.22710235027,
              -83348.66817746079
            ],
            [
              75331.29594956001,
              -83285.51241360325
            ],
            [
              75045.13279817638,
              -82706.4865364097
            ],
            [
              74616.29754191556,
              -82689.1366676949
            ],
            [
              74841.29115932109,
              -82360.82189823687
            ],
            [
              74729.82548098487,
              -82193.65676821861
            ],
            [
              74663.41923628858,
              -82058.89507647278
            ],
            [
              74498.15533095715,
              -81712.45847337693
            ],
            [
              74314.42217723827,
              -81287.2290123445
            ],
            [
              74071.51173111895,
              -80529.7735359543
            ],
            [
              73211.92462742451,
              -78889.43203862943
            ],
            [
              73062.88616121694,
              -78723.54446320143
            ],
            [
              72604.01905914629,
              -78662.60184718529
            ],
            [
              73034.20058193919,
              -78381.11727504246
            ],
            [
              72811.64484826155,
              -77801.28242854029
            ],
            [
              72280.37404866953,
              -76656.66171720531
            ],
            [
              71655.30560410506,
              -75229.43217821838
            ],
            [
              71453.57089245139,
              -74889.63708380051
            ],
            [
              70984.72356138396,
              -73984.47025236767
            ],
            [
              71054.11437546683,
              -73822.92866755929
            ],
            [
              70745.1359107747,
              -73498.85859020613
            ],
            [
              69942.86159962922,
              -73652.03132329974
            ],
            [
              69812.5819236011,
              -72905.20899500186
            ],
            [
              70344.18346967077,
              -72801.90262712073
            ],
            [
              70535.83815347246,
              -72452.13173536584
            ],
            [
              70235.68401708058,
              -72026.00840665167
            ],
            [
              69955.52674722672,
              -70824.4532026737
            ],
            [
              69402.90183634771,
              -69654.14925424475
            ],
            [
              69511.5900266068,
              -69449.44329599291
            ],
            [
              69378.02347089892,
              -69481.58444546303
            ],
            [
              69211.77894872753,
              -68795.85350808874
            ],
            [
              68828.47589145764,
              -69010.76632673526
            ],
            [
              68416.09016433044,
              -67911.46471672738
            ],
            [
              68837.76969229936,
              -67567.48644525418
            ],
            [
              68830.63474581321,
              -67418.91078001773
            ],
            [
              67978.10203987686,
              -64871.28909445554
            ],
            [
              67702.91928297508,
              -64333.70255152322
            ],
            [
              67618.74199051276,
              -64185.25756443199
            ],
            [
              67597.5527290518,
              -64022.93877286557
            ],
            [
              67543.35696837585,
              -63900.76762707438
            ],
            [
              67433.8193426638,
              -63747.419330657925
            ],
            [
              67417.0598521172,
              -63593.393622613046
            ],
            [
              67361.98569475132,
              -63449.59849437233
            ],
            [
              67339.61602676124,
              -63347.030161149334
            ],
            [
              67284.24540141376,
              -63236.50799954962
            ],
            [
              67089.19199369464,
              -62619.911078679375
            ],
            [
              67080.17024509376,
              -62480.952326857485
            ],
            [
              67037.460430342,
              -62427.55534930341
            ],
            [
              66995.70327483409,
              -62160.75879412657
            ],
            [
              66952.55478989001,
              -61972.6647530715
            ],
            [
              66878.21934472246,
              -61648.63512156531
            ],
            [
              66866.9293994318,
              -60812.966615691315
            ],
            [
              66927.73498579877,
              -60504.725159560796
            ],
            [
              66935.65687122778,
              -60397.14058944397
            ],
            [
              66951.99892274162,
              -59982.585580685176
            ],
            [
              66870.1381082735,
              -59343.69391142996
            ],
            [
              66650.7629096841,
              -58557.81959694298
            ],
            [
              66221.83020605915,
              -57481.34957050998
            ],
            [
              66005.76849500346,
              -57110.80702363234
            ],
            [
              65545.36015006591,
              -56125.01339110639
            ],
            [
              65545.07624253008,
              -56124.12959558889
            ],
            [
              65289.6939759549,
              -56256.88429757813
            ],
            [
              65013.70982091385,
              -56170.55700457888
            ],
            [
              65477.39308144234,
              -55913.63197179278
            ],
            [
              65639.46564583527,
              -56036.51674783975
            ],
            [
              65784.54774861119,
              -55922.905664261896
            ],
            [
              65724.47353083314,
              -55624.68566374481
            ],
            [
              66017.55220945587,
              -55432.71223668521
            ],
            [
              66488.43503641238,
              -56151.05606262572
            ],
            [
              66678.54896253726,
              -56090.383528318256
            ],
            [
              66438.29236500693,
              -55537.57029265957
            ],
            [
              66760.42374200933,
              -55362.0852550799
            ],
            [
              66679.79182747379,
              -55218.02741760295
            ],
            [
              67040.92501201347,
              -54506.729353630915
            ],
            [
              66147.40052050684,
              -54585.21791103808
            ],
            [
              65709.28577245097,
              -54316.07420975203
            ],
            [
              65523.70800826134,
              -54130.00272031687
            ],
            [
              65694.34184943757,
              -54017.0860428391
            ],
            [
              65263.070287964656,
              -54060.505764662754
            ],
            [
              64873.634845153894,
              -53423.11348000821
            ],
            [
              64878.25447601429,
              -53093.291642987635
            ],
            [
              64875.07900366589,
              -52983.11496780021
            ],
            [
              65625.65286448214,
              -52676.99914036458
            ],
            [
              65624.40076588868,
              -52408.005313006695
            ],
            [
              65471.221348066116,
              -52438.7140229838
            ],
            [
              65298.127114997245,
              -52620.815621732734
            ],
            [
              64759.02358073066,
              -52779.652171378024
            ],
            [
              65049.18359667109,
              -52564.13783665607
            ],
            [
              64908.836447430716,
              -52391.646886528004
            ],
            [
              65144.144989361754,
              -52107.77224888699
            ],
            [
              64795.04410148272,
              -52161.330520029645
            ],
            [
              64868.67023211473,
              -52482.251503838226
            ],
            [
              64653.10917771282,
              -52535.43940218631
            ],
            [
              64454.503965623735,
              -53243.75274066627
            ],
            [
              64074.59418452106,
              -52994.940451425035
            ],
            [
              63953.06824284571,
              -53126.34975908976
            ],
            [
              64261.458707371785,
              -53524.525583969895
            ],
            [
              64121.45722731005,
              -53640.940617676824
            ],
            [
              64128.9437651193,
              -53555.93282292085
            ],
            [
              64084.58098537562,
              -53516.23106604209
            ],
            [
              64012.77462112298,
              -53489.15953690419
            ],
            [
              63989.06566543237,
              -53494.22927951254
            ],
            [
              63941.59982781997,
              -53544.15224307729
            ],
            [
              63722.95162674441,
              -53878.18018509168
            ],
            [
              63721.77163286164,
              -53757.167467013
            ],
            [
              64021.64836979413,
              -53450.33691057004
            ],
            [
              63364.91713002429,
              -52884.07581089856
            ],
            [
              63354.5362696189,
              -52687.20108282473
            ],
            [
              63257.26244196575,
              -52597.75889173243
            ],
            [
              63184.51028761605,
              -52530.01075971592
            ],
            [
              62814.14799569809,
              -52354.314224922564
            ],
            [
              62639.94454147696,
              -52452.47340035904
            ],
            [
              62800.23004287592,
              -52324.651149169076
            ],
            [
              62666.02601929149,
              -52352.66991944751
            ],
            [
              60136.159758327296,
              -50273.54203774221
            ],
            [
              59975.57182950212,
              -50189.02301434614
            ],
            [
              57419.71632812574,
              -48454.507462451234
            ],
            [
              55735.68803421123,
              -47670.341565824114
            ],
            [
              55834.401703103096,
              -47314.636419705115
            ],
            [
              55538.81447459292,
              -47005.04380153585
            ],
            [
              54797.636379778676,
              -46216.4243835127
            ],
            [
              54445.30090512463,
              -46470.69806239102
            ],
            [
              54090.47045664728,
              -46163.96444844082
            ],
            [
              53387.96032067039,
              -46024.82993494021
            ],
            [
              53166.96265107248,
              -46157.735968077555
            ],
            [
              53313.60808019829,
              -46596.87491368875
            ],
            [
              53075.93333598471,
              -46366.49843350798
            ],
            [
              52582.71924471314,
              -45143.289763459004
            ],
            [
              52398.14360659075,
              -41106.92435961589
            ],
            [
              52633.76495686546,
              -40325.60907000769
            ],
            [
              52998.24029972975,
              -39806.88396604126
            ],
            [
              53067.42578708776,
              -39520.57025002036
            ],
            [
              54305.18505883968,
              -37765.477659800556
            ],
            [
              54594.39461266651,
              -37225.21032168344
            ],
            [
              55356.66930309392,
              -35852.362199803814
            ],
            [
              55838.18620116217,
              -33325.45059271017
            ],
            [
              55618.77467459411,
              -32972.202278512064
            ],
            [
              55714.86713427538,
              -32397.53329049237
            ],
            [
              55396.42016984272,
              -32081.014976043254
            ],
            [
              55454.86498437566,
              -31871.205324270763
            ],
            [
              55818.88719124417,
              -31857.836477932055
            ],
            [
              56841.06498918566,
              -29967.505632807966
            ],
            [
              56858.25072272302,
              -29241.67445751326
            ],
            [
              56473.28785439022,
              -29143.330536533613
            ],
            [
              56325.07365865237,
              -28706.953530968167
            ],
            [
              56511.15871371812,
              -28520.150081319734
            ],
            [
              56848.80797296902,
              -28496.680254454724
            ],
            [
              57225.39727565495,
              -27888.12158398889
            ],
            [
              57163.75715126196,
              -26491.649008343928
            ],
            [
              57310.71799336962,
              -26243.61089622462
            ],
            [
              57676.26517097448,
              -26320.954351310153
            ],
            [
              57409.30140256684,
              -27216.14408426592
            ],
            [
              58065.7223282067,
              -27591.15432136366
            ],
            [
              58107.250143705925,
              -28088.381472589448
            ],
            [
              58472.59459456534,
              -28043.910371623002
            ],
            [
              58481.02927268454,
              -27405.723901049234
            ],
            [
              58539.27909466013,
              -27631.847935337108
            ],
            [
              58643.23116851947,
              -27411.289385588374
            ],
            [
              58690.7490814731,
              -27870.968574706
            ],
            [
              58841.48661980411,
              -27866.41805352969
            ],
            [
              58740.41880764789,
              -27616.65091545414
            ],
            [
              59070.2805806555,
              -27719.196134593803
            ],
            [
              59256.92620150233,
              -27461.223675947636
            ],
            [
              59571.693103333295,
              -27459.251511472743
            ],
            [
              59569.97505607159,
              -27304.847429689486
            ],
            [
              59566.928349675785,
              -27031.068619580474
            ],
            [
              58501.63295460149,
              -26937.30129345646
            ],
            [
              58413.8530114484,
              -26466.350940817036
            ],
            [
              58379.30534878606,
              -26347.780674346723
            ],
            [
              58572.92621426756,
              -26388.30798844481
            ],
            [
              58351.46027876879,
              -26242.528147351928
            ],
            [
              58963.267809650046,
              -25406.996905091684
            ],
            [
              58945.894369074726,
              -25044.388727286365
            ],
            [
              59487.91740012198,
              -24640.614825778175
            ],
            [
              59533.43451458961,
              -24343.206214498263
            ],
            [
              59770.833002517174,
              -24357.97549305437
            ],
            [
              59874.78237250034,
              -23983.441679256503
            ],
            [
              59475.56573037611,
              -23514.983621999156
            ],
            [
              59895.669897802465,
              -22598.769259491004
            ],
            [
              60649.90505543514,
              -22236.604869261384
            ],
            [
              61388.01334507315,
              -22334.20490718726
            ],
            [
              60525.11098549591,
              -22105.298621762544
            ],
            [
              60992.27267698734,
              -21670.515263274778
            ],
            [
              60894.94152563275,
              -21622.511430819985
            ],
            [
              59511.5802416692,
              -22518.092205006164
            ],
            [
              59078.28370910941,
              -22499.02807021141
            ],
            [
              58741.71824953263,
              -22243.494552827906
            ],
            [
              58600.46431268862,
              -22494.54262866825
            ],
            [
              58616.55125091103,
              -23624.43068186054
            ],
            [
              58456.541087735444,
              -24283.258611957543
            ],
            [
              57657.8807668364,
              -25892.930343311746
            ],
            [
              57497.4125230551,
              -25796.59934295388
            ],
            [
              57538.106282509165,
              -25629.673152489122
            ],
            [
              58431.253730361175,
              -23571.54869994754
            ],
            [
              58510.809953836084,
              -21260.78775056824
            ],
            [
              58514.032074086484,
              -21080.727481437847
            ],
            [
              58725.0171823487,
              -19719.638326807413
            ],
            [
              59182.116784815385,
              -19680.40204832889
            ],
            [
              59816.61477679515,
              -19302.891028846614
            ],
            [
              59827.86237335298,
              -19241.987703114748
            ],
            [
              59474.90553257131,
              -18989.41159585258
            ],
            [
              60301.12446110358,
              -17450.54043837916
            ],
            [
              60525.46891954006,
              -16245.775129016023
            ],
            [
              60732.627304261085,
              -16195.663196110167
            ],
            [
              61400.8421339324,
              -16681.333858161233
            ],
            [
              62021.64110811544,
              -16667.269497065805
            ],
            [
              62019.03413254733,
              -16337.604201355949
            ],
            [
              61705.313868871075,
              -16374.388007989619
            ],
            [
              61164.341561898356,
              -15862.458104728255
            ],
            [
              61159.931059964,
              -15690.816002292559
            ],
            [
              61357.30591494043,
              -15685.960392499808
            ],
            [
              61277.73485066992,
              -15317.751206357032
            ],
            [
              61441.3068965908,
              -15161.062403470278
            ],
            [
              61718.06416573707,
              -14700.08643141482
            ],
            [
              61508.74062459415,
              -14696.312735222746
            ],
            [
              61282.051197761204,
              -14338.540883525275
            ],
            [
              61103.47394954704,
              -14277.825133153703
            ],
            [
              61091.97060675168,
              -14541.720355937723
            ],
            [
              60936.36948566703,
              -14219.288954124786
            ],
            [
              60636.48194039613,
              -14323.917842272203
            ],
            [
              61792.998313010496,
              -12485.35407062713
            ],
            [
              62014.566207184514,
              -11023.209513426758
            ],
            [
              62624.32430320437,
              -11021.300431707408
            ],
            [
              62589.27223335911,
              -11118.591144078877
            ],
            [
              62864.70220186503,
              -10955.209060102701
            ],
            [
              62604.61053846532,
              -11423.935530980583
            ],
            [
              62715.87244399305,
              -11564.278376119211
            ],
            [
              62107.33152840129,
              -12148.47798314225
            ],
            [
              61909.35234204016,
              -12369.453876369633
            ],
            [
              62487.87769042555,
              -12565.680997943506
            ],
            [
              62926.09495120833,
              -11712.013854617253
            ],
            [
              63353.24722069758,
              -11752.730082068592
            ],
            [
              63129.08564441453,
              -12183.588836812414
            ],
            [
              63290.48709181702,
              -12348.718239248265
            ],
            [
              63114.158999547886,
              -14006.495215035044
            ],
            [
              63399.796238997136,
              -12415.15056320373
            ],
            [
              63927.97977169475,
              -12779.32366834348
            ],
            [
              64434.44821776927,
              -12066.01873174915
            ],
            [
              64440.50309683115,
              -11525.137038928922
            ],
            [
              64405.36673106084,
              -10776.65314749116
            ],
            [
              64036.27318724693,
              -10825.665076787584
            ],
            [
              63866.75374027359,
              -11475.595766949933
            ],
            [
              64014.431723362766,
              -10824.233121221885
            ],
            [
              64221.78639698506,
              -10726.228473066818
            ],
            [
              64436.132799871906,
              -10745.914666520432
            ],
            [
              64565.65099825512,
              -10654.032154450659
            ],
            [
              64678.22165292478,
              -9596.22691261489
            ],
            [
              64297.19506601815,
              -9164.163939833641
            ],
            [
              64337.04040308844,
              -8369.54478426138
            ],
            [
              64532.867772663245,
              -8167.022977155168
            ],
            [
              64385.44961668353,
              -8650.922574496362
            ],
            [
              64593.20175940695,
              -8871.977202863432
            ],
            [
              64410.586190975155,
              -8977.621585424058
            ],
            [
              65014.305744625046,
              -9163.940893802326
            ],
            [
              65325.67373678967,
              -8649.726840595249
            ],
            [
              65118.811926960014,
              -8528.891780851875
            ],
            [
              64925.471450757235,
              -7412.9316122196615
            ],
            [
              65349.182411605725,
              -7464.521954691503
            ],
            [
              64967.18979759817,
              -7246.5202928856015
            ],
            [
              64345.318764884025,
              -7457.039320778567
            ],
            [
              64243.578997258155,
              -7896.212565083057
            ],
            [
              64420.050432813296,
              -7963.217836576048
            ],
            [
              64168.988656809495,
              -7968.570809543133
            ],
            [
              63571.40719530929,
              -6296.888499270659
            ],
            [
              63707.484994393424,
              -6378.577192104422
            ],
            [
              63970.1919887836,
              -7116.079284722917
            ],
            [
              63715.686786268256,
              -6303.349383580498
            ],
            [
              63947.31157296512,
              -5787.326978783589
            ],
            [
              63846.70155502512,
              -5393.7420821334235
            ],
            [
              64493.511739192414,
              -4853.357643873896
            ],
            [
              63458.025988898706,
              -4821.842723781709
            ],
            [
              63531.08886879403,
              -4112.345002911519
            ],
            [
              63384.89437957085,
              -3965.1431592535228
            ],
            [
              63500.11497393955,
              -3591.392870295793
            ],
            [
              63709.6912910135,
              -3655.2941201133654
            ],
            [
              64325.95441272075,
              -2685.732417446561
            ],
            [
              64499.21827586787,
              -2687.897560502868
            ],
            [
              64062.83391362219,
              -2530.3809813777916
            ],
            [
              64897.39053136844,
              -2552.212305814959
            ],
            [
              64687.702205730835,
              -2681.597884880379
            ],
            [
              65432.04512861284,
              -3160.6533018015325
            ],
            [
              64928.85561434948,
              -2550.9840307980776
            ],
            [
              64970.94684001373,
              -2529.256563942414
            ],
            [
              65442.76619575458,
              -3060.9802541239187
            ],
            [
              65448.49404049211,
              -2514.9092818824574
            ],
            [
              64863.01753732242,
              -1799.3180596330203
            ],
            [
              64275.04726373486,
              -1558.274477252271
            ],
            [
              63799.90355531545,
              -1956.576985807158
            ],
            [
              62387.103122835455,
              -2665.3752122749574
            ],
            [
              62146.29212269804,
              -2243.755493454635
            ],
            [
              62262.48541114334,
              -1952.6462616408244
            ],
            [
              62750.378912383516,
              -1509.1039322405122
            ],
            [
              63297.767065941356,
              -1292.1430309950374
            ],
            [
              63457.005592476344,
              -658.1604728256352
            ],
            [
              63159.44531178876,
              -541.3483675657772
            ],
            [
              63079.23827630194,
              -324.128429739736
            ],
            [
              63389.18658851867,
              63.42191729461774
            ],
            [
              63310.02885218669,
              174.39530163817108
            ],
            [
              63756.17156412761,
              490.43474320461974
            ],
            [
              63968.32587501069,
              981.9549019779079
            ],
            [
              64428.7612599642,
              1406.32417938672
            ],
            [
              64353.605568853905,
              2488.6445453255437
            ],
            [
              62122.58917119063,
              1815.6262062303722
            ],
            [
              61234.177072069666,
              1873.012301044073
            ],
            [
              60712.32593938196,
              2618.160198368598
            ],
            [
              60665.867362399644,
              4907.101317812223
            ],
            [
              60873.53055486432,
              5226.684690499678
            ],
            [
              61215.56747876317,
              5365.630209777504
            ],
            [
              63021.848932811525,
              5057.817292128224
            ],
            [
              63185.9616763072,
              5206.814534746576
            ],
            [
              64052.76664259442,
              5161.178806614131
            ],
            [
              63855.810950596235,
              5207.559427566361
            ],
            [
              63440.750369084766,
              5286.369581392501
            ],
            [
              63466.425153735734,
              5414.5275302790105
            ],
            [
              63451.11597628571,
              5427.198326999322
            ],
            [
              63374.52588681411,
              5448.794706099667
            ],
            [
              63305.97201232548,
              5976.330243416596
            ],
            [
              63826.03726788721,
              6673.210672321729
            ],
            [
              63718.13041479752,
              6879.716196312103
            ],
            [
              63886.171368648706,
              6911.079915617127
            ],
            [
              63874.666782367625,
              7079.801404694561
            ],
            [
              63359.84572355886,
              7434.4636210114695
            ],
            [
              62933.38482722337,
              8026.213429699652
            ],
            [
              62701.37511870579,
              8558.255425064359
            ],
            [
              62766.575122329756,
              9522.465156972408
            ],
            [
              62577.64939301286,
              9522.204189037904
            ],
            [
              62529.288345279754,
              10030.664427050855
            ],
            [
              62915.93852975592,
              10175.981188564096
            ],
            [
              63073.15508634306,
              11047.455821604934
            ],
            [
              62828.53319848713,
              11083.320231785998
            ],
            [
              62811.559313359554,
              12017.250439805444
            ],
            [
              62873.69239954499,
              13274.532200332731
            ],
            [
              63192.18034480041,
              13623.44395022234
            ],
            [
              63183.511672779685,
              14016.851088874508
            ],
            [
              62834.292485207436,
              14026.966155292
            ],
            [
              62842.337900278566,
              15557.01839233609
            ],
            [
              62460.90682397713,
              14934.036440622993
            ],
            [
              62143.9522220628,
              14719.175250931643
            ],
            [
              62040.30874130991,
              13701.259853873402
            ],
            [
              61917.272935435525,
              13749.28767433716
            ],
            [
              61869.37224644073,
              14543.855643511284
            ],
            [
              62163.89735656232,
              15884.818798260298
            ],
            [
              61988.768613623106,
              15939.011346627958
            ],
            [
              62036.23052619735,
              16366.05926785944
            ],
            [
              62416.76603965543,
              16491.840214326978
            ],
            [
              62416.46874449332,
              16526.650856007822
            ],
            [
              63078.129402678576,
              19667.8038836373
            ],
            [
              63450.037874931004,
              20089.621322453488
            ],
            [
              63523.623072469956,
              20441.159280197695
            ],
            [
              63242.28222884826,
              20615.568382146303
            ],
            [
              63330.30245358049,
              20743.942165884655
            ],
            [
              63335.37876775954,
              20753.42007335322
            ],
            [
              63511.870829817955,
              20699.73326272564
            ],
            [
              63613.098753150436,
              21009.581208622083
            ],
            [
              63784.47054464556,
              20954.217245498206
            ],
            [
              63902.67759640241,
              21356.360937987454
            ],
            [
              64069.94130072382,
              21283.820894216187
            ],
            [
              65022.1709247214,
              23485.047799518798
            ],
            [
              66279.5915458547,
              25154.713022310752
            ],
            [
              66674.72284892155,
              25396.49123117281
            ],
            [
              67147.80307452084,
              25106.01926485449
            ],
            [
              67517.15461831342,
              25283.35103115393
            ],
            [
              67436.43587100616,
              25585.470427711494
            ],
            [
              67565.75952067529,
              25607.173087435775
            ],
            [
              66422.17354666302,
              25809.41133428784
            ],
            [
              65877.12918361853,
              25686.387898756657
            ],
            [
              65647.02592248563,
              26078.16019244818
            ],
            [
              65685.4662610616,
              26481.84185366379
            ],
            [
              66141.23039290152,
              29600.02699464746
            ],
            [
              66360.03187559627,
              30556.601539828815
            ],
            [
              66831.44781294937,
              31551.942884220276
            ],
            [
              68607.66744233295,
              31597.915490284096
            ],
            [
              68739.23567356664,
              31940.16910123732
            ],
            [
              68492.35630872275,
              31929.557709875982
            ],
            [
              67952.97972350422,
              31906.403029240668
            ],
            [
              67612.8737326042,
              32138.481220290065
            ],
            [
              66910.77462548966,
              31851.53016491281
            ],
            [
              65524.19925774977,
              31792.180713286623
            ],
            [
              64923.27206501365,
              31785.115438121837
            ],
            [
              65260.80706734292,
              32506.72322448576
            ],
            [
              64904.42888519948,
              33346.926770473365
            ],
            [
              65469.73828632437,
              33108.00937057473
            ],
            [
              65690.9770787675,
              33339.084584764205
            ],
            [
              65920.11448205344,
              33849.83853036957
            ],
            [
              67045.93790036172,
              36160.344927761704
            ],
            [
              67119.41277465655,
              36491.32369118743
            ]
          ]
        ]
      }
    }
  ]
}
